{
 "type": "FeatureCollection",
 "features": [
  {
   "type": "Feature",
   "properties": {
    "name": "Purvavideha, the eastern continent",
    "name_zh": "东胜神洲",
    "text": "Home of Flower-Fruit Mountain. The Buddha: its people revere heaven and earth, and are clear-hearted and even-tempered (ch. 8).",
    "text_zh": "花果山所在。如来说：东胜神洲者，敬天礼地，心爽气平（第8回）。",
    "color": "#4f8f86"
   },
   "geometry": {
    "type": "Polygon",
    "coordinates": [
     [
      [
       125.0,
       32.0
      ],
      [
       124.95,
       33.22
      ],
      [
       124.79,
       34.39
      ],
      [
       124.53,
       35.5
      ],
      [
       124.18,
       36.5
      ],
      [
       123.75,
       37.36
      ],
      [
       123.25,
       38.06
      ],
      [
       122.7,
       38.58
      ],
      [
       122.11,
       38.89
      ],
      [
       121.5,
       39.0
      ],
      [
       120.89,
       38.89
      ],
      [
       120.3,
       38.58
      ],
      [
       119.75,
       38.06
      ],
      [
       119.25,
       37.36
      ],
      [
       118.82,
       36.5
      ],
      [
       118.47,
       35.5
      ],
      [
       118.21,
       34.39
      ],
      [
       118.05,
       33.22
      ],
      [
       118.0,
       32.0
      ],
      [
       118.05,
       30.78
      ],
      [
       118.21,
       29.61
      ],
      [
       118.47,
       28.5
      ],
      [
       118.82,
       27.5
      ],
      [
       119.25,
       26.64
      ],
      [
       119.75,
       25.94
      ],
      [
       120.3,
       25.42
      ],
      [
       120.89,
       25.11
      ],
      [
       121.5,
       25.0
      ],
      [
       122.11,
       25.11
      ],
      [
       122.7,
       25.42
      ],
      [
       123.25,
       25.94
      ],
      [
       123.75,
       26.64
      ],
      [
       124.18,
       27.5
      ],
      [
       124.53,
       28.5
      ],
      [
       124.79,
       29.61
      ],
      [
       124.95,
       30.78
      ],
      [
       125.0,
       32.0
      ]
     ]
    ]
   }
  },
  {
   "type": "Feature",
   "properties": {
    "name": "Jambudvipa, the southern continent",
    "name_zh": "南赡部洲",
    "text": "The Tang empire. The Buddha: its people are greedy and lustful, delight in trouble, and kill and quarrel much, which is why it needs the scriptures (ch. 8).",
    "text_zh": "大唐所在。如来说：南赡部洲者，贪淫乐祸，多杀多争，所以要传经劝善（第8回）。",
    "color": "#b5523b"
   },
   "geometry": {
    "type": "Polygon",
    "coordinates": [
     [
      [
       117.5,
       32.0
      ],
      [
       117.37,
       33.56
      ],
      [
       116.99,
       35.08
      ],
      [
       116.36,
       36.5
      ],
      [
       115.51,
       37.79
      ],
      [
       114.46,
       38.89
      ],
      [
       113.25,
       39.79
      ],
      [
       111.91,
       40.46
      ],
      [
       110.48,
       40.86
      ],
      [
       109.0,
       41.0
      ],
      [
       107.52,
       40.86
      ],
      [
       106.09,
       40.46
      ],
      [
       104.75,
       39.79
      ],
      [
       103.54,
       38.89
      ],
      [
       102.49,
       37.79
      ],
      [
       101.64,
       36.5
      ],
      [
       101.01,
       35.08
      ],
      [
       100.63,
       33.56
      ],
      [
       100.5,
       32.0
      ],
      [
       100.63,
       30.44
      ],
      [
       101.01,
       28.92
      ],
      [
       101.64,
       27.5
      ],
      [
       102.49,
       26.21
      ],
      [
       103.54,
       25.11
      ],
      [
       104.75,
       24.21
      ],
      [
       106.09,
       23.54
      ],
      [
       107.52,
       23.14
      ],
      [
       109.0,
       23.0
      ],
      [
       110.48,
       23.14
      ],
      [
       111.91,
       23.54
      ],
      [
       113.25,
       24.21
      ],
      [
       114.46,
       25.11
      ],
      [
       115.51,
       26.21
      ],
      [
       116.36,
       27.5
      ],
      [
       116.99,
       28.92
      ],
      [
       117.37,
       30.44
      ],
      [
       117.5,
       32.0
      ]
     ]
    ]
   }
  },
  {
   "type": "Feature",
   "properties": {
    "name": "Aparagodaniya, the western continent",
    "name_zh": "西牛贺洲",
    "text": "Everything beyond Two Frontiers Mountain, all the way to Spirit Mountain. The Buddha: its people neither covet nor kill, and nourish the spirit (ch. 8). The demons on the road suggest otherwise.",
    "text_zh": "两界山以西直到灵山都属此洲。如来说：我西牛贺洲者，不贪不杀，养气潜灵（第8回）。一路妖魔却不大像。",
    "color": "#c47a2c"
   },
   "geometry": {
    "type": "Polygon",
    "coordinates": [
     [
      [
       99.0,
       31.0
      ],
      [
       98.74,
       33.26
      ],
      [
       97.97,
       35.45
      ],
      [
       96.72,
       37.5
      ],
      [
       95.02,
       39.36
      ],
      [
       92.93,
       40.96
      ],
      [
       90.5,
       42.26
      ],
      [
       87.81,
       43.22
      ],
      [
       84.95,
       43.8
      ],
      [
       82.0,
       44.0
      ],
      [
       79.05,
       43.8
      ],
      [
       76.19,
       43.22
      ],
      [
       73.5,
       42.26
      ],
      [
       71.07,
       40.96
      ],
      [
       68.98,
       39.36
      ],
      [
       67.28,
       37.5
      ],
      [
       66.03,
       35.45
      ],
      [
       65.26,
       33.26
      ],
      [
       65.0,
       31.0
      ],
      [
       65.26,
       28.74
      ],
      [
       66.03,
       26.55
      ],
      [
       67.28,
       24.5
      ],
      [
       68.98,
       22.64
      ],
      [
       71.07,
       21.04
      ],
      [
       73.5,
       19.74
      ],
      [
       76.19,
       18.78
      ],
      [
       79.05,
       18.2
      ],
      [
       82.0,
       18.0
      ],
      [
       84.95,
       18.2
      ],
      [
       87.81,
       18.78
      ],
      [
       90.5,
       19.74
      ],
      [
       92.93,
       21.04
      ],
      [
       95.02,
       22.64
      ],
      [
       96.72,
       24.5
      ],
      [
       97.97,
       26.55
      ],
      [
       98.74,
       28.74
      ],
      [
       99.0,
       31.0
      ]
     ]
    ]
   }
  },
  {
   "type": "Feature",
   "properties": {
    "name": "Uttarakuru, the northern continent",
    "name_zh": "北俱芦洲",
    "text": "Never visited in the story. The Buddha: its people kill, but only to eat, and are simple and do little harm (ch. 8).",
    "text_zh": "书中师徒从未到过。如来说：北俱芦洲者，虽好杀生，只因糊口，性拙情疏，无多作践（第8回）。",
    "color": "#6a8aa0"
   },
   "geometry": {
    "type": "Polygon",
    "coordinates": [
     [
      [
       123.0,
       46.0
      ],
      [
       122.73,
       46.43
      ],
      [
       121.91,
       46.86
      ],
      [
       120.59,
       47.25
      ],
      [
       118.79,
       47.61
      ],
      [
       116.57,
       47.92
      ],
      [
       114.0,
       48.0
      ],
      [
       111.16,
       48.0
      ],
      [
       108.13,
       48.0
      ],
      [
       105.0,
       48.0
      ],
      [
       101.87,
       48.0
      ],
      [
       98.84,
       48.0
      ],
      [
       96.0,
       48.0
      ],
      [
       93.43,
       47.92
      ],
      [
       91.21,
       47.61
      ],
      [
       89.41,
       47.25
      ],
      [
       88.09,
       46.86
      ],
      [
       87.27,
       46.43
      ],
      [
       87.0,
       46.0
      ],
      [
       87.27,
       45.57
      ],
      [
       88.09,
       45.14
      ],
      [
       89.41,
       44.75
      ],
      [
       91.21,
       44.39
      ],
      [
       93.43,
       44.08
      ],
      [
       96.0,
       43.83
      ],
      [
       98.84,
       43.65
      ],
      [
       101.87,
       43.54
      ],
      [
       105.0,
       43.5
      ],
      [
       108.13,
       43.54
      ],
      [
       111.16,
       43.65
      ],
      [
       114.0,
       43.83
      ],
      [
       116.57,
       44.08
      ],
      [
       118.79,
       44.39
      ],
      [
       120.59,
       44.75
      ],
      [
       121.91,
       45.14
      ],
      [
       122.73,
       45.57
      ],
      [
       123.0,
       46.0
      ]
     ]
    ]
   }
  }
 ]
}
