{"type":"FeatureCollection","features":[{"type":"Feature","properties":{"name":"Saka Kingdom","name_zh":"塞种诸国","focus":false,"color":"#7d6b5a","label":[71.95,25.83],"area":106.5},"geometry":{"type":"Polygon","coordinates":[[[66.432,25.488],[67.387,28.225],[69.999,30.983],[70.016,30.775],[70.447,30.775],[70.550,30.824],[70.766,30.826],[70.823,31.044],[70.775,31.150],[70.775,31.324],[70.825,31.474],[70.924,31.474],[71.176,31.350],[71.599,31.349],[71.725,31.275],[71.849,31.276],[71.950,31.374],[72.099,31.406],[72.150,31.699],[72.274,31.875],[72.275,32.049],[72.448,32.223],[72.475,32.324],[72.625,32.424],[72.949,32.424],[73.125,32.325],[73.272,32.301],[73.475,32.499],[73.964,32.500],[74.000,32.624],[74.250,32.824],[74.550,32.924],[74.764,32.950],[74.775,33.174],[74.922,33.200],[74.996,33.271],[75.022,33.464],[74.600,33.575],[74.525,33.824],[74.650,33.925],[74.750,34.074],[74.973,33.980],[75.125,34.175],[75.225,34.224],[75.399,34.225],[75.525,34.274],[75.699,34.224],[75.750,34.051],[75.847,33.977],[76.149,33.999],[76.224,33.949],[76.277,33.746],[76.374,33.626],[76.499,33.599],[76.624,33.424],[76.549,33.325],[76.353,33.324],[76.274,33.225],[76.048,33.222],[75.829,33.004],[75.824,32.925],[75.687,32.874],[75.749,32.749],[75.749,32.150],[75.553,32.048],[75.549,31.725],[75.352,31.522],[75.399,31.299],[75.4,30.950],[75.350,30.893],[75.350,30.550],[75.399,30.374],[75.400,30.125],[75.449,29.949],[75.450,29.774],[75.574,29.374],[75.600,29.026],[75.649,28.899],[75.625,28.578],[75.674,28.499],[75.675,28.002],[75.724,27.900],[75.575,27.724],[75.553,27.556],[75.699,27.499],[75.799,27.349],[75.801,27.006],[75.874,26.974],[75.999,26.824],[76.001,26.723],[76.096,26.580],[76.222,26.526],[76.324,26.549],[76.326,26.423],[76.444,26.234],[76.599,26.224],[76.699,26.099],[76.707,25.996],[76.975,26.149],[77.199,26.224],[77.251,25.923],[77.448,25.726],[77.599,25.699],[77.601,25.573],[77.728,25.397],[77.877,25.300],[78.249,25.299],[78.376,25.199],[78.824,25.049],[78.923,24.706],[78.974,24.674],[79.000,24.375],[79.049,24.200],[78.923,24.096],[78.711,23.600],[79.049,23.424],[79.133,23.078],[79.449,23.074],[79.599,22.726],[79.699,22.624],[79.574,22.400],[79.453,22.347],[79.449,22.225],[79.175,22.274],[78.951,22.222],[78.824,21.900],[78.649,21.750],[78.424,21.749],[78.049,21.550],[77.580,21.496],[77.574,20.950],[77.499,20.823],[77.424,20.475],[77.325,20.349],[77.274,20.200],[77.174,20.100],[77.026,20.074],[76.924,20.000],[76.450,20.025],[76.330,20.069],[76.249,19.950],[75.958,19.947],[75.849,19.400],[75.550,19.375],[75.351,19.498],[75.230,19.499],[75.124,19.375],[75.046,19.372],[74.824,19.225],[74.576,19.199],[74.499,19.125],[74.350,19.125],[74.248,19.200],[73.896,19.316],[73.799,19.150],[73.699,19.072],[73.649,18.925],[73.525,18.823],[73.475,18.528],[73.574,18.299],[73.576,18.149],[73.649,18.049],[73.700,17.750],[73.774,17.624],[73.724,17.425],[73.475,17.449],[73.205,17.325],[73.149,17.527],[73.155,17.624],[72.994,18.097],[72.917,18.573],[72.875,18.643],[72.937,18.859],[72.912,19.003],[72.834,18.976],[72.795,19.251],[72.812,19.298],[72.868,19.319],[72.788,19.363],[72.764,19.413],[72.792,19.519],[72.727,19.578],[72.668,19.831],[72.709,20.077],[72.880,20.560],[72.893,20.675],[72.824,21.078],[72.692,21.178],[72.624,21.371],[72.679,21.438],[72.613,21.462],[72.706,21.546],[72.688,21.679],[72.543,21.697],[72.592,21.877],[72.641,21.942],[72.522,21.976],[72.538,22.115],[72.321,22.114],[72.230,22.016],[72.127,21.822],[72.256,21.660],[72.287,21.548],[72.255,21.352],[72.119,21.155],[71.893,20.989],[71.023,20.657],[70.855,20.650],[70.467,20.777],[70.208,20.947],[69.126,21.967],[68.894,22.284],[69.491,22.248],[69.967,22.351],[69.999,22.378],[70.000,22.544],[70.177,22.575],[70.322,22.834],[70.044,22.777],[69.664,22.789],[69.107,22.898],[68.789,23.028],[68.372,23.326],[68.072,23.675],[68.042,23.762],[67.692,23.814],[67.486,23.928],[67.315,24.091],[67.204,24.585],[67.155,24.647],[66.654,24.783],[66.698,25.116],[66.619,25.317],[66.432,25.488]]]}},{"type":"Feature","properties":{"name":"Satavahanihara","name_zh":"","focus":false,"color":"#9a8a4a","label":[78.09,17.38],"area":56.6},"geometry":{"type":"Polygon","coordinates":[[[73.205,17.324],[73.475,17.449],[73.728,17.439],[73.772,17.626],[73.700,17.750],[73.650,18.047],[73.575,18.150],[73.574,18.299],[73.475,18.525],[73.525,18.824],[73.649,18.925],[73.700,19.074],[73.799,19.150],[73.900,19.324],[74.249,19.199],[74.349,19.126],[74.491,19.125],[74.575,19.199],[74.823,19.225],[75.050,19.374],[75.124,19.377],[75.225,19.499],[75.349,19.499],[75.551,19.375],[75.837,19.399],[75.875,19.624],[75.925,19.703],[75.950,19.949],[76.244,19.950],[76.325,20.074],[76.451,20.025],[76.919,20.000],[77.025,20.074],[77.174,20.100],[77.274,20.199],[77.325,20.349],[77.424,20.476],[77.500,20.824],[77.574,20.950],[77.575,21.499],[78.048,21.549],[78.425,21.749],[78.650,21.751],[78.825,21.901],[78.950,22.224],[79.175,22.274],[79.474,22.224],[79.479,22.099],[79.648,22.001],[79.849,21.974],[79.953,21.899],[80.149,21.874],[80.199,21.650],[80.103,21.563],[80.174,21.326],[80.249,21.224],[80.251,21.075],[80.399,20.924],[80.275,20.525],[80.275,20.301],[80.349,20.174],[80.351,19.972],[80.522,19.656],[80.924,19.624],[80.977,19.525],[81.146,19.476],[81.350,19.574],[81.599,19.599],[81.774,19.549],[82.199,19.324],[82.323,19.176],[82.424,19.124],[82.501,18.999],[82.724,18.874],[82.899,18.699],[82.924,18.499],[82.899,18.175],[82.803,18.066],[82.900,17.800],[83.126,17.556],[82.355,17.085],[82.302,16.894],[82.359,16.783],[82.258,16.559],[81.787,16.328],[81.596,16.302],[81.364,16.340],[81.252,16.223],[81.086,15.826],[80.962,15.723],[80.826,15.766],[80.729,15.835],[80.460,15.772],[80.299,15.643],[80.089,15.172],[80.116,14.741],[80.178,14.477],[80.144,14.296],[80.161,14.016],[80.306,13.485],[80.166,13.697],[80.099,13.638],[80.341,13.360],[80.314,13.175],[79.505,13.199],[79.424,13.150],[79.175,13.150],[78.974,13.225],[78.751,13.249],[78.499,13.150],[77.908,13.175],[77.849,13.125],[77.397,13.149],[77.274,13.123],[77.174,13.000],[77.000,12.999],[76.874,12.950],[76.525,12.900],[76.470,12.949],[76.275,12.950],[76.101,12.997],[75.999,12.925],[75.796,12.892],[75.750,12.797],[75.749,12.550],[75.674,12.375],[75.425,12.450],[75.273,12.574],[74.943,12.575],[74.770,13.077],[74.670,13.669],[74.499,14.046],[74.391,14.434],[74.249,14.680],[73.949,15.075],[73.883,15.304],[73.801,15.396],[73.827,15.422],[73.728,15.660],[73.476,16.054],[73.338,16.460],[73.205,17.324]]]}},{"type":"Feature","properties":{"name":"Magadha","name_zh":"","focus":false,"color":"#4f8f86","label":[80.71,27.52],"area":107.3},"geometry":{"type":"MultiPolygon","coordinates":[[[[85.850,26.050],[85.850,26.274],[85.974,26.499],[86.025,26.699],[86.100,26.801],[86.200,27.099],[86.272,27.154],[86.250,27.324],[86.425,27.499],[86.479,27.513],[86.570,27.787],[86.525,27.825],[86.550,28.024],[87.373,27.975],[87.549,28.024],[87.684,27.827],[87.924,27.874],[87.982,27.825],[88.346,27.849],[88.500,27.949],[88.899,27.924],[89.079,27.637],[89.200,27.749],[89.467,27.754],[89.475,27.899],[89.550,28.000],[89.700,28.074],[89.922,28.075],[90.000,28.150],[90.249,28.199],[90.374,28.053],[90.549,28.074],[90.632,28.000],[90.942,28.024],[90.975,28.074],[91.274,28.174],[91.332,28.076],[91.549,28.099],[91.655,28.025],[91.999,28.049],[92.199,27.949],[92.174,27.700],[91.961,27.392],[92.249,27.174],[92.276,27.048],[92.549,26.774],[92.605,26.627],[92.841,26.625],[92.875,26.674],[93.144,26.650],[93.225,26.724],[93.374,26.724],[93.376,26.421],[93.523,26.178],[93.674,26.124],[93.775,25.925],[93.974,25.749],[94.000,25.576],[94.074,25.474],[94.074,25.325],[93.924,25.271],[93.828,25.010],[93.899,24.924],[93.899,24.700],[93.824,24.425],[93.750,24.346],[93.724,24.025],[93.625,23.850],[93.624,23.750],[93.382,23.579],[93.374,23.500],[93.249,23.425],[93.000,23.449],[92.85,23.400],[92.695,23.443],[92.499,23.200],[92.422,23.196],[92.174,22.925],[92.003,22.850],[91.974,22.750],[91.690,22.509],[91.626,22.584],[91.570,22.543],[91.479,22.614],[91.556,22.382],[91.510,22.353],[91.411,22.476],[91.439,22.598],[91.478,22.636],[91.415,22.712],[91.080,22.561],[90.904,22.560],[90.643,22.925],[90.557,22.970],[90.527,22.941],[90.551,22.905],[90.498,22.889],[90.494,22.848],[90.595,22.863],[90.671,22.812],[90.737,22.639],[90.867,22.484],[90.829,22.160],[90.777,22.089],[90.383,22.018],[90.273,21.778],[90.157,21.733],[89.875,22.105],[89.795,21.832],[89.669,21.719],[89.578,21.700],[89.486,21.860],[89.353,21.721],[89.274,21.705],[89.232,21.655],[89.073,21.763],[89.051,21.654],[88.996,21.631],[89.024,21.546],[88.879,21.514],[88.723,21.539],[88.657,21.850],[88.593,21.881],[88.567,21.833],[88.599,21.713],[88.584,21.660],[88.412,21.628],[88.376,21.577],[88.299,21.551],[88.251,21.620],[88.122,21.636],[88.057,21.694],[88.112,21.838],[88.048,21.922],[87.866,21.696],[87.640,21.563],[86.875,21.275],[86.775,21.397],[86.600,21.425],[86.325,21.675],[86.300,21.999],[86.374,22.079],[86.375,22.324],[86.471,22.376],[86.475,22.499],[86.549,22.577],[86.549,22.769],[86.350,22.950],[86.321,23.197],[86.125,23.250],[86.074,23.399],[85.925,23.525],[85.974,23.676],[85.974,23.896],[85.850,24.099],[85.924,24.129],[85.950,24.274],[86.173,24.364],[86.149,24.548],[86.075,24.650],[86.075,25.124],[86.123,25.180],[86.102,25.332],[86.050,25.350],[85.925,25.550],[85.924,25.923],[85.850,26.050]],[[90.523,22.746],[90.488,22.747],[90.484,22.677],[90.665,22.336],[90.649,22.537],[90.565,22.618],[90.523,22.746]]],[[[91.074,22.450],[91.074,22.450],[91.079,22.519],[91.114,22.450],[91.074,22.450]]],[[[75.350,30.550],[75.350,30.899],[75.4,30.958],[75.399,31.299],[75.350,31.524],[75.548,31.725],[75.550,32.049],[75.749,32.160],[75.749,32.746],[75.675,32.874],[75.817,32.924],[75.825,32.999],[76.050,33.224],[76.269,33.225],[76.350,33.324],[76.545,33.325],[76.600,33.374],[76.649,33.374],[76.849,33.125],[76.947,33.052],[77.198,33.025],[77.325,33.049],[77.449,32.974],[77.453,32.896],[77.652,32.648],[77.798,32.551],[77.924,32.549],[78.026,32.450],[78.199,32.399],[78.210,32.295],[78.325,32.250],[78.499,32.249],[78.700,32.050],[78.849,31.949],[78.874,31.650],[78.800,31.593],[78.810,31.379],[79.149,31.399],[79.274,31.274],[79.377,31.102],[79.499,31.099],[79.603,31.024],[79.849,30.999],[79.928,30.925],[80.149,30.899],[80.299,30.724],[80.357,30.600],[80.524,30.599],[80.816,30.503],[80.900,30.599],[81.074,30.599],[81.275,30.425],[81.447,30.375],[81.999,30.399],[82.149,30.299],[82.350,30.050],[82.649,29.874],[82.999,29.550],[83.004,29.375],[83.199,29.299],[83.205,29.221],[83.372,29.102],[83.649,29.074],[83.750,28.901],[83.899,28.849],[83.956,28.775],[84.124,28.776],[84.250,28.899],[84.474,28.849],[84.552,28.778],[84.675,28.824],[84.999,28.824],[85.176,28.576],[85.549,28.549],[85.674,28.400],[85.824,28.300],[86.124,28.224],[86.099,27.950],[85.975,27.725],[85.949,27.575],[85.798,27.546],[85.674,27.324],[84.924,26.575],[84.844,26.568],[84.403,26.103],[84.377,25.933],[84.524,25.874],[84.499,25.725],[84.311,25.771],[84.274,25.725],[84.125,25.747],[83.899,25.525],[83.750,25.525],[83.621,25.577],[83.599,25.025],[83.550,24.898],[83.549,24.675],[83.326,24.586],[83.350,23.876],[83.399,23.749],[83.400,23.427],[83.524,23.225],[83.399,23.223],[83.278,23.127],[83.249,22.875],[83.052,22.871],[82.999,22.750],[82.824,22.600],[82.695,22.671],[82.399,22.525],[82.227,22.522],[82.149,22.375],[82.024,22.250],[81.750,22.200],[81.695,22.249],[81.474,22.250],[81.300,22.325],[81.238,22.389],[81.024,22.224],[80.774,21.850],[80.458,21.872],[80.399,21.725],[80.274,21.650],[80.200,21.650],[80.144,21.873],[79.950,21.900],[79.846,21.975],[79.650,22.000],[79.475,22.100],[79.450,22.349],[79.576,22.403],[79.692,22.630],[79.600,22.725],[79.450,23.069],[79.125,23.075],[79.124,23.201],[79.048,23.423],[78.700,23.600],[78.775,23.700],[78.925,24.099],[79.046,24.205],[79.000,24.375],[78.975,24.667],[78.925,24.700],[78.824,25.046],[78.375,25.200],[78.248,25.299],[77.875,25.300],[77.725,25.399],[77.600,25.575],[77.595,25.695],[77.450,25.725],[77.250,25.925],[77.192,26.216],[76.975,26.149],[76.700,25.975],[76.698,26.100],[76.606,26.217],[76.450,26.225],[76.325,26.425],[76.320,26.537],[76.225,26.525],[76.100,26.575],[76.000,26.725],[75.996,26.828],[75.876,26.973],[75.800,27.000],[75.798,27.351],[75.700,27.498],[75.550,27.550],[75.575,27.724],[75.721,27.904],[75.675,28.000],[75.674,28.495],[75.625,28.575],[75.649,28.899],[75.600,29.025],[75.574,29.374],[75.450,29.775],[75.449,29.950],[75.400,30.125],[75.399,30.374],[75.350,30.550]]]]}},{"type":"Feature","properties":{"name":"Hainan","name_zh":"","focus":false,"color":"#5f87a3","label":[109.55,18.92],"area":1.5},"geometry":{"type":"Polygon","coordinates":[[[108.576,19.186],[108.597,19.204],[108.597,19.126],[108.632,19.093],[109.098,19.050],[109.473,19.077],[109.838,19.159],[110.412,19.413],[110.716,19.628],[110.973,19.870],[111.013,19.655],[110.820,19.555],[110.641,19.292],[110.571,19.169],[110.450,18.748],[110.064,18.514],[110.066,18.448],[110.019,18.416],[109.818,18.396],[109.702,18.258],[109.520,18.216],[109.428,18.096],[108.651,18.482],[108.576,19.186]],[[108.651,18.529],[108.677,18.491],[109.009,18.322],[109.062,18.313],[109.097,18.341],[109.094,18.387],[108.988,18.513],[108.682,18.788],[108.627,18.744],[108.651,18.529]]]}},{"type":"Feature","properties":{"name":"Simhala","name_zh":"","focus":false,"color":"#6f9460","label":[80.73,7.62],"area":5.3},"geometry":{"type":"MultiPolygon","coordinates":[[[[79.674,8.804],[79.705,8.929],[79.896,8.923],[80.052,9.116],[80.076,9.278],[80.116,9.350],[80.086,9.577],[80.135,9.589],[80.118,9.635],[79.979,9.699],[79.967,9.792],[80.252,9.796],[80.376,9.642],[80.710,9.365],[80.933,8.975],[81.015,8.932],[81.197,8.662],[81.228,8.508],[81.372,8.430],[81.423,8.145],[81.516,8.000],[81.433,7.994],[81.444,7.929],[81.803,7.312],[81.865,7.083],[81.778,6.753],[81.598,6.448],[81.201,6.079],[80.850,5.951],[80.561,5.931],[80.341,5.969],[80.222,6.058],[80.127,6.215],[79.854,7.061],[79.834,7.982],[79.721,8.000],[79.708,8.066],[79.759,8.309],[79.724,8.415],[79.805,8.645],[79.674,8.804]],[[80.243,9.613],[80.224,9.581],[80.337,9.479],[80.407,9.487],[80.383,9.549],[80.243,9.613]],[[79.788,8.228],[79.75,8.222],[79.750,8.055],[79.779,8.027],[79.817,8.140],[79.788,8.228]]],[[[79.904,8.974],[79.767,9.069],[79.748,9.104],[79.859,9.065],[79.904,8.974]]],[[[79.846,9.714],[79.887,9.740],[79.969,9.631],[79.907,9.620],[79.846,9.714]]]]}},{"type":"Feature","properties":{"name":"Suren Kingdom","name_zh":"","focus":false,"color":"#8a6f9e","label":[65.47,30.8],"area":91.4},"geometry":{"type":"Polygon","coordinates":[[[60.000,25.322],[60.000,28.264],[62.796,34.614],[69.984,34.856],[70.000,35.524],[70.125,35.551],[70.275,35.674],[70.524,35.674],[70.633,35.575],[70.776,35.575],[70.992,35.647],[71.050,35.799],[71.125,35.853],[71.175,36.024],[71.275,36.051],[71.350,36.149],[71.455,36.154],[71.599,36.275],[71.675,36.424],[71.870,36.378],[71.950,36.499],[72.174,36.549],[72.225,36.375],[72.299,36.274],[72.308,35.832],[72.674,35.899],[72.924,35.825],[73.074,35.849],[73.101,35.699],[73.299,35.524],[73.282,35.400],[73.624,35.274],[73.681,35.074],[74.020,35.001],[74.075,35.049],[74.372,35.050],[74.450,35.124],[74.549,35.074],[74.579,34.926],[74.699,34.899],[74.823,34.778],[75.099,34.799],[75.174,34.678],[75.349,34.674],[75.474,34.549],[75.475,34.352],[75.524,34.275],[75.399,34.225],[75.224,34.224],[75.129,34.177],[74.974,33.975],[74.749,34.068],[74.649,33.925],[74.529,33.825],[74.604,33.575],[75.024,33.474],[74.999,33.275],[74.924,33.200],[74.776,33.165],[74.774,32.950],[74.550,32.924],[74.250,32.824],[74.002,32.626],[73.974,32.500],[73.475,32.498],[73.274,32.300],[73.125,32.325],[72.948,32.424],[72.621,32.422],[72.477,32.325],[72.449,32.225],[72.277,32.051],[72.274,31.875],[72.150,31.698],[72.099,31.400],[71.950,31.374],[71.849,31.275],[71.725,31.275],[71.596,31.349],[71.175,31.350],[70.927,31.473],[70.830,31.472],[70.775,31.323],[70.775,31.151],[70.824,31.049],[70.774,30.825],[70.551,30.824],[70.449,30.775],[70.000,30.775],[69.999,30.937],[69.965,30.947],[67.387,28.225],[66.431,25.488],[66.298,25.493],[65.767,25.308],[64.424,25.173],[64.238,25.210],[64.050,25.399],[63.651,25.335],[63.402,25.164],[62.449,25.161],[61.813,25.053],[61.343,25.026],[60.858,25.095],[60.478,25.297],[60.000,25.322]]]}},{"type":"Feature","properties":{"name":"Kalinga","name_zh":"","focus":false,"color":"#4f8f86","label":[84.82,22.92],"area":31.8},"geometry":{"type":"Polygon","coordinates":[[[80.100,21.574],[80.175,21.649],[80.276,21.651],[80.396,21.723],[80.450,21.874],[80.776,21.854],[81.025,22.224],[81.249,22.399],[81.302,22.324],[81.475,22.250],[81.699,22.249],[81.756,22.201],[82.020,22.249],[82.149,22.374],[82.225,22.524],[82.400,22.525],[82.699,22.674],[82.829,22.605],[82.998,22.749],[83.050,22.874],[83.246,22.880],[83.275,23.124],[83.400,23.224],[83.508,23.242],[83.400,23.425],[83.399,23.748],[83.350,23.875],[83.325,24.599],[83.549,24.683],[83.550,24.899],[83.599,25.026],[83.625,25.599],[83.750,25.525],[83.895,25.525],[84.125,25.749],[84.266,25.727],[84.300,25.774],[84.497,25.734],[84.519,25.871],[84.375,25.925],[84.400,26.099],[84.849,26.574],[84.929,26.580],[85.672,27.322],[85.800,27.549],[85.948,27.580],[85.975,27.724],[86.099,27.950],[86.125,28.224],[86.349,28.249],[86.524,28.124],[86.549,28.024],[86.526,27.833],[86.574,27.799],[86.475,27.500],[86.420,27.495],[86.253,27.327],[86.274,27.150],[86.198,27.095],[86.099,26.800],[86.024,26.697],[85.974,26.500],[85.850,26.273],[85.850,26.051],[85.924,25.924],[85.925,25.550],[86.046,25.356],[86.100,25.349],[86.124,25.175],[86.075,25.118],[86.075,24.654],[86.149,24.549],[86.174,24.350],[85.954,24.274],[85.924,24.125],[85.860,24.087],[85.974,23.899],[85.974,23.675],[85.930,23.522],[86.074,23.399],[86.128,23.250],[86.324,23.199],[86.351,22.950],[86.549,22.774],[86.549,22.575],[86.476,22.499],[86.474,22.375],[86.376,22.320],[86.374,22.075],[86.301,21.996],[86.325,21.677],[86.596,21.427],[86.774,21.399],[86.871,21.279],[86.921,21.274],[86.857,21.217],[86.842,21.107],[86.974,20.699],[86.766,20.424],[86.749,20.313],[86.640,20.251],[86.631,20.202],[86.118,19.806],[85.427,19.618],[85.224,19.506],[85.018,19.333],[84.103,18.293],[83.986,18.207],[83.683,18.081],[83.380,17.710],[83.127,17.556],[82.900,17.800],[82.800,18.074],[82.900,18.180],[82.924,18.499],[82.898,18.700],[82.724,18.875],[82.500,19.000],[82.425,19.123],[82.325,19.175],[82.199,19.324],[81.774,19.549],[81.601,19.599],[81.350,19.574],[81.149,19.475],[80.975,19.525],[80.917,19.625],[80.525,19.650],[80.350,19.975],[80.349,20.174],[80.275,20.300],[80.275,20.524],[80.396,20.923],[80.250,21.075],[80.249,21.223],[80.175,21.325],[80.100,21.574]]]}},{"type":"Feature","properties":{"name":"Chola","name_zh":"","focus":false,"color":"#7272a8","label":[77.94,10.55],"area":16.7},"geometry":{"type":"Polygon","coordinates":[[[74.943,12.574],[75.274,12.574],[75.425,12.450],[75.667,12.379],[75.749,12.550],[75.750,12.799],[75.800,12.899],[75.998,12.925],[76.100,12.999],[76.275,12.950],[76.474,12.949],[76.530,12.901],[76.872,12.949],[77.000,12.999],[77.173,13.001],[77.275,13.124],[77.400,13.149],[77.842,13.125],[77.900,13.175],[78.498,13.150],[78.750,13.249],[78.974,13.224],[79.176,13.150],[79.422,13.150],[79.500,13.199],[80.314,13.174],[80.228,12.690],[80.143,12.452],[79.921,12.114],[79.770,11.688],[79.754,11.574],[79.792,11.447],[79.735,11.346],[79.798,11.338],[79.849,11.196],[79.837,10.323],[79.788,10.250],[79.319,10.254],[79.257,10.178],[79.257,10.035],[79.089,9.808],[78.927,9.489],[78.943,9.430],[79.113,9.309],[79.179,9.297],[79.174,9.258],[79.108,9.259],[78.313,8.994],[78.181,8.811],[78.134,8.499],[78.063,8.385],[77.898,8.257],[77.418,8.028],[77.341,8.053],[76.967,8.407],[76.553,8.903],[76.471,9.161],[76.403,9.236],[76.325,9.452],[76.242,9.926],[76.295,9.907],[76.312,9.935],[76.196,10.085],[76.198,10.204],[75.923,10.783],[75.865,10.982],[75.650,11.424],[75.292,11.974],[75.197,12.058],[74.943,12.574]],[[76.413,9.629],[76.373,9.624],[76.376,9.546],[76.412,9.525],[76.433,9.543],[76.413,9.629]]]}},{"type":"Feature","properties":{"name":"Parthian Empire","name_zh":"","focus":false,"color":"#4f8f86","label":[60.7,31.44],"area":14.1},"geometry":{"type":"Polygon","coordinates":[[[60.0,37.520],[60.963,37.319],[62.795,34.614],[60.000,28.265],[60.0,37.520]]]}},{"type":"Feature","properties":{"name":"Southern Xiongnu","name_zh":"南匈奴","focus":false,"color":"#a07d5a","label":[102.55,41.59],"area":9.6},"geometry":{"type":"Polygon","coordinates":[[[97.800,42.625],[97.872,42.865],[97.850,42.899],[97.893,42.875],[98.096,42.875],[98.225,42.949],[98.449,42.949],[98.626,42.875],[98.899,42.849],[99.098,42.652],[99.349,42.649],[99.378,42.549],[99.524,42.475],[99.967,42.499],[100.025,42.574],[100.323,42.724],[100.569,42.896],[100.575,43.174],[100.799,43.175],[101.023,43.026],[101.199,43.024],[101.256,42.975],[101.498,42.975],[101.650,43.050],[101.924,43.074],[102.024,43.049],[102.076,42.748],[102.372,42.428],[102.474,42.399],[102.599,42.275],[102.639,42.125],[103.377,42.125],[103.602,42.176],[103.748,42.299],[103.800,42.424],[104.174,42.449],[104.375,42.375],[104.549,42.349],[104.752,42.225],[105.243,42.225],[105.550,42.524],[105.627,42.480],[105.386,42.288],[105.127,42.016],[104.912,41.710],[104.743,41.374],[104.626,41.018],[104.562,40.648],[104.553,40.273],[104.607,39.863],[104.375,39.925],[104.271,40.050],[103.979,40.099],[103.856,40.216],[103.814,40.193],[103.379,40.370],[102.917,40.464],[102.875,40.550],[102.862,40.873],[102.650,40.875],[102.470,40.95],[102.131,40.949],[102.072,40.897],[101.759,41.117],[101.307,41.331],[100.825,41.452],[100.374,41.478],[99.915,41.870],[99.359,42.150],[98.998,42.250],[98.626,42.296],[98.251,42.287],[97.984,42.247],[97.925,42.300],[97.800,42.625]]]}},{"type":"Feature","properties":{"name":"Yueban","name_zh":"悦般","focus":false,"color":"#a07d5a","label":[73.09,46.4],"area":9.7},"geometry":{"type":"Polygon","coordinates":[[[71.400,45.275],[71.424,45.574],[71.400,45.799],[71.451,45.828],[71.574,46.053],[71.575,46.599],[71.675,46.749],[71.778,46.782],[71.874,47.023],[71.875,47.124],[72.072,47.372],[72.075,47.474],[72.325,47.526],[72.550,47.725],[72.650,47.75],[73.095,47.750],[73.175,47.824],[73.342,47.849],[73.375,47.949],[73.597,48.123],[73.650,48.224],[73.900,48.324],[74.151,48.301],[74.324,48.400],[74.400,48.499],[74.674,48.499],[74.799,48.399],[74.849,48.174],[74.850,47.953],[74.949,47.874],[74.925,47.580],[74.999,47.474],[74.999,47.099],[74.899,46.825],[74.774,46.724],[74.650,46.550],[74.549,46.250],[74.251,46.097],[74.199,45.875],[74.075,45.650],[74.049,45.525],[73.949,45.447],[73.874,45.225],[73.650,45.000],[73.475,44.947],[73.399,44.775],[73.227,44.746],[73.199,44.650],[73.048,44.548],[72.674,44.150],[72.525,44.175],[72.348,44.274],[72.150,44.275],[71.600,44.525],[71.500,44.875],[71.499,45.100],[71.400,45.275]]]}},{"type":"Feature","properties":{"name":"Ainu","name_zh":"","focus":false,"color":"#7272a8","label":[143.26,43.53],"area":18.7},"geometry":{"type":"MultiPolygon","coordinates":[[[[149.450,45.595],[149.667,45.849],[149.854,45.922],[149.999,46.044],[149.999,45.831],[149.672,45.628],[149.450,45.595]]],[[[146.840,44.415],[146.846,44.475],[147.145,44.669],[147.111,44.792],[147.473,44.971],[147.504,45.042],[147.655,45.075],[147.763,45.188],[147.882,45.222],[147.856,45.355],[147.931,45.420],[147.999,45.275],[148.073,45.248],[148.321,45.270],[148.700,45.519],[148.855,45.473],[148.824,45.334],[148.581,45.315],[148.217,45.188],[147.876,44.974],[147.762,44.938],[147.619,44.961],[147.594,44.923],[147.621,44.896],[147.547,44.812],[147.293,44.667],[147.208,44.550],[147.022,44.506],[146.947,44.408],[146.840,44.415]]],[[[146.598,43.732],[146.604,43.803],[146.841,43.873],[146.903,43.838],[146.668,43.704],[146.598,43.732]]],[[[145.409,43.834],[145.744,44.051],[146.127,44.506],[146.343,44.421],[146.567,44.437],[146.119,44.250],[145.940,44.128],[145.778,43.928],[145.597,43.856],[145.553,43.650],[145.437,43.716],[145.409,43.834]]],[[[146.080,43.517],[146.152,43.544],[146.225,43.524],[146.130,43.458],[146.080,43.517]]],[[[139.711,42.476],[139.854,42.572],[139.891,42.648],[140.115,42.733],[140.431,42.954],[140.482,43.049],[140.373,43.185],[140.392,43.302],[140.487,43.337],[140.597,43.325],[140.819,43.205],[141.138,43.180],[141.299,43.205],[141.301,43.719],[141.509,43.819],[141.601,43.920],[141.645,44.020],[141.661,44.263],[141.733,44.417],[141.744,44.628],[141.566,44.969],[141.522,45.181],[141.668,45.400],[141.825,45.437],[141.937,45.509],[141.999,45.458],[142.005,45.324],[143.018,44.464],[143.791,44.026],[144.615,43.842],[144.751,43.882],[145.139,44.177],[145.346,44.242],[145.062,43.783],[145.447,43.169],[144.993,42.937],[144.753,42.866],[144.590,42.859],[144.365,42.948],[144.167,42.941],[144.003,42.877],[143.507,42.418],[143.329,42.195],[143.212,41.926],[143.032,41.958],[141.925,42.501],[141.720,42.538],[141.397,42.518],[140.929,42.255],[140.859,42.390],[140.698,42.544],[140.542,42.537],[140.349,42.430],[140.329,42.290],[140.527,42.132],[140.733,42.115],[141.107,41.847],[141.150,41.805],[141.126,41.776],[141.154,41.749],[140.978,41.652],[140.587,41.674],[140.267,41.324],[140.112,41.273],[140.012,41.381],[139.977,41.502],[140.021,41.695],[140.084,41.804],[140.099,41.938],[139.852,42.035],[139.777,42.112],[139.711,42.476]]],[[[141.598,52.215],[141.811,52.630],[141.838,52.958],[141.689,53.165],[141.767,53.271],[141.823,53.282],[141.852,53.388],[141.999,53.463],[142.007,53.292],[142.211,53.298],[142.673,53.539],[143.055,53.060],[143.137,52.855],[143.142,52.511],[143.032,52.311],[142.943,51.958],[142.943,51.617],[143.073,51.269],[143.339,50.884],[143.633,50.233],[144.037,49.508],[144.538,48.753],[143.597,49.232],[143.153,49.257],[142.849,49.119],[142.646,48.656],[142.489,47.898],[142.616,47.456],[142.990,46.956],[143.235,46.862],[143.443,46.570],[143.302,46.011],[143.004,46.574],[142.613,46.711],[142.510,46.697],[142.326,46.561],[142.002,46.071],[141.999,45.977],[141.955,45.997],[141.897,45.914],[141.708,46.139],[141.622,46.557],[141.906,47.074],[141.731,47.471],[141.810,47.674],[142.034,47.964],[141.976,48.284],[141.739,48.806],[141.921,48.945],[142.048,49.354],[142.151,50.889],[142.112,51.217],[142.016,51.428],[141.643,51.813],[141.598,52.215]]],[[[140.725,52.699],[140.850,52.749],[141.047,52.750],[141.150,52.799],[141.257,52.792],[141.244,52.550],[141.136,52.430],[141.172,52.366],[141.484,52.178],[141.387,52.057],[141.372,51.968],[141.249,51.950],[141.025,52.025],[140.950,52.100],[140.899,52.270],[140.800,52.300],[140.799,52.524],[140.725,52.699]]]]}},{"type":"Feature","properties":{"name":"Koguryo","name_zh":"高句丽","focus":false,"color":"#a07d5a","label":[127.86,41.43],"area":5.2},"geometry":{"type":"MultiPolygon","coordinates":[[[[126.315,41.485],[126.349,41.898],[126.327,42.229],[126.402,42.251],[126.647,42.472],[126.750,42.650],[126.925,42.799],[127.174,42.849],[127.225,42.653],[127.349,42.600],[127.522,42.625],[127.625,42.749],[127.774,42.774],[127.824,42.353],[127.999,42.174],[128.029,42.022],[128.176,41.925],[128.399,41.899],[128.455,41.824],[128.674,41.799],[128.851,41.624],[129.199,41.449],[129.200,41.324],[129.301,41.150],[129.599,41.024],[129.736,40.921],[129.708,40.857],[129.506,40.783],[129.476,40.682],[129.226,40.637],[129.109,40.491],[128.813,40.349],[128.445,40.065],[128.235,39.969],[128.028,39.960],[128.072,39.980],[128.082,40.025],[127.936,40.311],[127.720,40.618],[127.461,40.890],[126.951,41.249],[126.610,41.400],[126.315,41.485]]],[[[127.864,37.575],[128.150,38.140],[128.283,38.717],[128.374,38.622],[128.594,38.219],[128.525,38.171],[128.499,38.025],[128.347,37.947],[128.226,37.826],[128.199,37.725],[128.049,37.699],[127.864,37.575]]],[[[126.404,37.577],[126.519,37.554],[126.564,37.591],[126.605,37.536],[126.606,37.423],[126.732,37.286],[126.700,37.173],[126.442,37.474],[126.404,37.577]]],[[[126.212,37.751],[126.235,37.785],[126.342,37.817],[126.319,37.767],[126.357,37.639],[126.212,37.751]]],[[[125.645,37.810],[125.761,37.930],[125.923,37.827],[126.019,37.820],[126.092,37.698],[126.165,37.710],[125.909,37.511],[125.742,37.780],[125.645,37.810]]],[[[124.719,38.067],[125.080,38.035],[124.951,37.964],[124.953,37.896],[125.086,37.834],[125.278,37.798],[125.324,37.687],[125.425,37.672],[125.269,37.484],[125.076,37.768],[124.791,37.922],[124.800,37.992],[124.719,38.067]]],[[[125.236,38.715],[125.237,38.717],[125.268,38.701],[125.266,38.700],[125.236,38.715]]],[[[124.711,38.198],[124.736,38.278],[124.854,38.392],[124.828,38.264],[124.711,38.198]]]]}},{"type":"Feature","properties":{"name":"Gaya","name_zh":"","focus":false,"color":"#9a8a4a","label":[128.11,35.18],"area":0.7},"geometry":{"type":"MultiPolygon","coordinates":[[[[127.173,34.546],[127.262,34.669],[127.260,34.713],[127.225,34.710],[127.225,34.849],[127.325,34.949],[127.475,34.976],[127.620,35.096],[127.700,35.324],[127.848,35.374],[127.945,35.470],[127.950,35.699],[128.024,35.774],[128.051,35.625],[128.224,35.499],[128.232,35.429],[128.374,35.424],[128.401,35.325],[128.524,35.249],[128.626,35.102],[128.799,35.099],[128.821,35.012],[128.722,35.017],[128.740,34.799],[128.646,34.737],[128.489,34.864],[128.712,35.035],[128.550,35.103],[128.423,35.021],[128.443,34.870],[128.277,34.905],[128.163,34.799],[128.072,34.809],[128.054,34.708],[127.984,34.703],[127.940,34.757],[127.873,34.735],[127.838,34.813],[127.846,34.902],[127.799,34.930],[127.654,34.883],[127.741,34.782],[127.714,34.721],[127.632,34.690],[127.520,34.838],[127.406,34.815],[127.392,34.740],[127.478,34.625],[127.325,34.463],[127.173,34.546]]],[[[127.737,34.631],[127.737,34.631],[127.786,34.681],[127.787,34.584],[127.737,34.631]]]]}},{"type":"Feature","properties":{"name":"Silla","name_zh":"新罗","focus":false,"color":"#5f87a3","label":[128.7,36.55],"area":3.6},"geometry":{"type":"Polygon","coordinates":[[[127.875,35.875],[127.900,36.024],[128.024,36.132],[128.024,36.349],[127.925,36.624],[128.075,36.824],[128.196,36.863],[128.172,36.969],[128.050,36.975],[127.975,37.075],[127.975,37.224],[128.049,37.277],[128.075,37.424],[128.174,37.502],[128.225,37.824],[128.350,37.949],[128.496,38.024],[128.525,38.174],[128.594,38.218],[129.052,37.677],[129.334,37.274],[129.417,37.059],[129.472,36.742],[129.433,36.636],[129.444,36.470],[129.393,36.319],[129.403,36.055],[129.455,36.008],[129.572,36.050],[129.485,35.687],[129.418,35.497],[129.213,35.182],[128.994,35.104],[128.916,35.029],[128.822,35.012],[128.791,35.098],[128.625,35.100],[128.525,35.249],[128.400,35.325],[128.370,35.421],[128.225,35.425],[128.219,35.503],[128.050,35.625],[127.999,35.845],[127.875,35.875]]]}},{"type":"Feature","properties":{"name":"Paekche","name_zh":"百济","focus":false,"color":"#7d6b5a","label":[127.23,35.97],"area":3.7},"geometry":{"type":"MultiPolygon","coordinates":[[[[126.109,34.399],[126.247,34.562],[126.349,34.562],[126.264,34.673],[126.340,34.737],[126.225,35.162],[126.300,35.366],[126.518,35.572],[126.488,35.646],[126.521,35.665],[126.524,35.736],[126.621,35.922],[126.436,36.131],[126.390,36.429],[126.338,36.471],[126.331,36.518],[126.408,36.543],[126.414,36.608],[126.448,36.628],[126.491,36.567],[126.608,36.598],[127.165,36.878],[127.552,37.196],[127.864,37.574],[128.050,37.699],[128.199,37.724],[128.174,37.500],[128.077,37.425],[128.049,37.275],[127.975,37.216],[127.977,37.071],[128.051,36.976],[128.174,36.974],[128.199,36.850],[128.073,36.821],[127.927,36.624],[128.025,36.349],[128.024,36.125],[127.901,36.025],[127.877,35.892],[127.999,35.849],[128.024,35.775],[127.950,35.695],[127.949,35.475],[127.849,35.375],[127.700,35.322],[127.624,35.099],[127.474,34.975],[127.323,34.948],[127.230,34.855],[127.224,34.710],[126.971,34.531],[126.896,34.439],[126.711,34.413],[126.769,34.296],[126.689,34.305],[126.629,34.410],[126.583,34.318],[126.502,34.331],[126.409,34.269],[126.371,34.460],[126.170,34.355],[126.109,34.399]]],[[[127.190,34.592],[127.195,34.604],[127.200,34.610],[127.200,34.610],[127.190,34.592]]],[[[126.851,36.928],[126.859,36.926],[126.883,36.921],[126.861,36.909],[126.851,36.928]]],[[[126.793,37.000],[126.795,36.997],[126.795,36.997],[126.793,36.997],[126.793,37.000]]],[[[126.008,34.867],[126.077,34.914],[126.168,34.829],[126.158,34.707],[126.115,34.714],[126.008,34.867]]],[[[125.960,36.722],[126.126,36.813],[126.126,36.813],[126.131,36.681],[125.960,36.722]]]]}},{"type":"Feature","properties":{"name":"Paleo-Siberian hunter-gatherers","name_zh":"","focus":false,"color":"#7d6b5a","nolabel":true,"label":[127.17,53.8],"area":222.7},"geometry":{"type":"MultiPolygon","coordinates":[[[[114.867,57.999],[140.346,57.999],[140.027,57.644],[138.867,57.124],[138.344,56.803],[137.296,56.030],[137.308,56.000],[137.418,55.999],[137.383,55.975],[136.370,55.521],[136.174,55.351],[135.750,55.161],[135.540,55.113],[135.264,54.944],[135.213,54.837],[135.266,54.728],[135.850,54.584],[136.796,54.620],[136.819,54.452],[136.769,54.351],[136.683,53.930],[136.719,53.808],[136.794,53.784],[136.886,53.838],[137.169,53.850],[137.249,54.016],[137.096,54.129],[137.142,54.181],[137.378,54.281],[137.665,54.282],[137.512,54.156],[137.379,54.115],[137.370,54.088],[137.622,53.970],[137.834,53.946],[137.785,53.903],[137.643,53.863],[137.516,53.707],[137.242,53.590],[137.257,53.546],[137.739,53.560],[137.949,53.604],[138.249,53.724],[138.410,53.928],[138.416,54.090],[138.707,54.096],[138.714,54.222],[138.657,54.297],[138.696,54.319],[139.318,54.193],[139.706,54.276],[140.178,54.051],[140.241,54.000],[140.348,53.812],[140.685,53.597],[141.005,53.494],[141.021,53.450],[141.215,53.335],[141.373,53.292],[141.401,53.184],[141.327,53.097],[141.180,53.015],[141.114,53.027],[141.038,52.948],[141.086,52.898],[141.255,52.839],[141.257,52.793],[141.151,52.799],[141.049,52.750],[140.851,52.749],[140.724,52.700],[140.428,52.674],[140.327,52.576],[140.324,52.475],[139.862,52.473],[139.849,52.325],[139.725,52.249],[139.674,52.150],[139.524,52.100],[138.801,52.099],[138.549,52.000],[138.375,52.000],[138.151,52.244],[137.700,52.250],[137.698,52.448],[137.575,52.550],[137.497,52.726],[137.397,52.799],[137.150,52.775],[137.050,53.000],[137.073,53.169],[137.031,53.218],[136.700,53.200],[136.650,53.397],[136.500,53.525],[136.492,53.602],[136.374,53.649],[136.177,53.649],[136.024,53.500],[135.860,53.497],[135.849,53.400],[135.624,53.300],[135.182,53.295],[135.174,53.075],[135.099,52.925],[134.999,52.848],[134.924,52.700],[134.754,52.647],[134.749,52.500],[134.524,52.400],[134.399,52.394],[134.324,52.225],[134.224,52.193],[134.174,51.975],[133.850,52.025],[133.765,52.149],[133.600,52.149],[133.425,52.075],[133.293,52.172],[133.029,52.076],[132.926,51.974],[132.924,51.775],[132.799,51.549],[132.599,51.400],[132.332,51.375],[132.299,51.325],[131.741,51.274],[131.799,51.025],[131.602,50.926],[131.549,50.850],[131.101,50.924],[130.880,50.876],[130.724,50.675],[130.600,50.672],[130.524,50.575],[130.324,50.475],[129.755,50.450],[129.699,50.400],[129.422,50.374],[129.102,50.250],[128.999,50.150],[128.850,50.149],[128.626,50.050],[128.399,49.825],[128.200,49.749],[128.025,49.575],[127.970,49.623],[127.825,49.600],[127.699,49.749],[127.525,49.800],[127.512,50.075],[127.251,50.099],[127.149,50.050],[126.900,50.025],[126.675,50.149],[126.425,50.150],[126.319,50.324],[125.800,50.325],[125.676,50.472],[125.550,50.500],[125.400,50.623],[125.125,50.675],[125.047,50.774],[124.850,50.800],[124.537,50.967],[124.474,50.875],[124.225,50.850],[124.025,50.874],[123.850,50.825],[123.725,50.997],[123.600,51.025],[123.545,51.243],[123.200,51.175],[123.144,51.274],[122.900,51.300],[122.797,51.443],[122.649,51.372],[122.524,51.050],[122.399,50.950],[122.173,51.124],[121.860,51.173],[121.799,51.125],[121.475,51.124],[121.225,51.075],[121.144,51.149],[120.750,51.125],[120.675,51.223],[120.500,51.300],[120.447,51.368],[120.200,51.250],[120.192,51.303],[119.982,51.419],[119.874,51.325],[119.725,51.450],[119.719,51.522],[119.600,51.550],[119.499,51.724],[119.300,51.875],[119.300,52.024],[119.398,52.129],[119.347,52.418],[119.250,52.425],[119.075,52.550],[119.062,52.598],[118.900,52.600],[118.756,52.646],[118.599,52.475],[118.425,52.625],[118.424,52.945],[118.350,53.050],[118.321,53.403],[118.198,53.524],[117.950,53.600],[117.870,53.726],[117.749,53.774],[117.575,53.775],[117.600,54.024],[117.699,54.126],[117.725,54.299],[117.800,54.379],[117.847,54.637],[117.700,54.725],[117.647,54.850],[117.525,54.900],[117.525,55.049],[117.697,55.299],[117.649,55.470],[117.396,55.523],[117.251,55.474],[117.174,55.350],[116.925,55.300],[116.849,55.372],[116.725,55.350],[116.470,55.624],[116.350,55.622],[116.274,55.525],[115.975,55.500],[115.850,55.725],[115.848,55.924],[115.775,55.999],[115.938,56.000],[115.952,56.027],[114.867,57.999]]],[[[60.000,56.558],[62.804,56.955],[65.855,58.0],[104.255,57.999],[100.257,56.036],[100.262,56.000],[100.399,55.999],[100.249,55.875],[99.953,55.824],[99.874,55.675],[99.725,55.648],[99.649,55.550],[99.430,55.499],[99.374,55.275],[99.122,55.246],[99.025,55.125],[98.999,55.000],[98.823,54.947],[98.624,54.700],[98.525,54.725],[98.421,54.849],[98.209,54.849],[98.124,54.725],[97.925,54.650],[97.871,54.723],[97.750,54.725],[97.698,54.876],[97.527,55.072],[97.350,55.175],[97.372,55.301],[97.275,55.448],[96.850,55.724],[96.837,55.800],[96.175,55.850],[95.925,55.899],[95.850,55.999],[95.857,56.039],[93.699,56.483],[78.362,56.410],[74.762,56.033],[74.599,55.875],[72.501,55.774],[72.124,55.650],[71.975,55.649],[71.774,55.575],[71.600,55.550],[70.999,55.549],[70.374,55.449],[70.000,55.425],[69.977,55.533],[65.311,55.046],[60.000,56.229],[60.000,56.558]]]]}},{"type":"Feature","properties":{"name":"Finno-Ugric taiga hunter-gatherers","name_zh":"","focus":false,"color":"#5f87a3","nolabel":true,"label":[62.16,57.48],"area":5.1},"geometry":{"type":"Polygon","coordinates":[[[60.000,57.999],[60.000,58.0],[65.854,57.999],[62.804,56.955],[60.000,56.559],[60.000,57.999]]]}},{"type":"Feature","properties":{"name":"Xianbei","name_zh":"鲜卑","focus":false,"approx":true,"color":"#a3727a","label":[106.23,47.04],"area":252.9},"geometry":{"type":"Polygon","coordinates":[[[88.725,45.399],[88.924,45.775],[88.975,45.974],[89.198,46.148],[89.274,46.274],[89.350,46.549],[89.401,46.581],[89.475,46.799],[89.624,46.951],[89.650,47.124],[89.924,47.225],[90.100,47.399],[90.294,47.450],[90.325,47.624],[90.621,47.724],[90.725,47.874],[90.869,47.950],[90.824,48.174],[90.625,48.350],[90.748,48.499],[90.775,48.624],[91.021,48.625],[91.150,48.699],[91.347,48.700],[91.475,48.824],[91.821,48.786],[91.825,49.099],[91.871,49.326],[91.775,49.425],[91.698,49.596],[91.475,49.625],[91.600,49.824],[91.800,49.850],[92.100,49.999],[92.250,50.000],[92.500,50.124],[93.619,50.126],[93.774,50.450],[93.800,50.799],[94.200,50.874],[94.449,50.849],[94.700,50.750],[95.024,50.699],[95.052,50.526],[95.224,50.450],[95.471,50.475],[95.550,50.549],[96.049,50.499],[96.177,50.425],[96.549,50.449],[96.655,50.349],[97.125,50.325],[97.223,50.379],[97.225,50.599],[97.299,50.725],[97.300,50.849],[97.375,50.974],[97.574,51.001],[97.725,51.174],[98.049,51.001],[98.374,51.074],[98.526,50.985],[98.600,51.099],[98.794,51.225],[98.725,51.474],[98.823,51.482],[98.850,51.624],[98.924,51.658],[98.925,51.774],[99.051,51.851],[99.225,52.074],[99.327,52.025],[99.873,52.050],[100.224,52.224],[100.426,52.002],[100.650,52.049],[100.849,52.024],[100.978,51.925],[101.599,51.899],[101.604,51.432],[101.799,51.424],[102.149,51.299],[102.163,51.196],[102.474,51.124],[102.533,51.075],[102.822,51.075],[102.925,51.124],[103.474,51.1],[103.849,51.124],[103.974,50.900],[104.077,50.802],[104.272,50.849],[104.375,50.924],[104.552,50.926],[104.850,51.074],[105.098,51.076],[105.225,51.225],[105.375,51.299],[105.550,51.300],[105.725,51.399],[105.999,51.399],[106.223,51.352],[106.374,51.524],[106.603,51.248],[106.747,51.202],[106.875,51.299],[107.074,51.299],[107.131,51.223],[107.344,51.176],[107.399,51.199],[107.681,50.900],[107.897,50.900],[107.975,50.974],[108.175,51.024],[108.397,51.025],[108.500,51.124],[108.674,51.149],[108.780,51.050],[109.149,51.074],[109.256,50.975],[109.572,50.975],[109.749,51.049],[109.824,50.924],[109.857,50.777],[109.999,50.774],[110.226,50.700],[110.599,50.699],[110.674,50.674],[110.824,50.355],[110.999,50.349],[111.135,50.262],[111.175,50.349],[111.348,50.375],[111.468,50.470],[111.475,50.574],[111.849,50.599],[112.001,50.500],[112.285,50.476],[112.350,50.774],[112.974,50.799],[113.199,50.749],[113.300,50.650],[113.424,50.624],[113.506,50.526],[113.645,50.549],[113.700,50.624],[113.925,50.699],[114.024,50.674],[114.087,50.501],[114.997,50.525],[115.100,50.575],[115.625,50.574],[116.096,50.476],[116.199,50.524],[116.302,50.425],[116.524,50.424],[116.678,50.277],[116.918,50.348],[116.950,50.424],[117.149,50.249],[117.186,50.150],[117.398,50.150],[117.525,50.224],[117.824,50.224],[117.902,50.150],[118.099,50.149],[118.226,50.003],[118.400,50.049],[118.574,50.024],[118.628,49.950],[118.799,49.924],[118.800,49.750],[118.899,49.599],[118.885,49.244],[118.977,49.200],[119.350,49.274],[119.749,49.274],[119.777,49.172],[120.074,48.874],[120.106,48.722],[120.275,48.650],[120.424,48.649],[120.482,48.549],[120.724,48.524],[120.949,48.325],[121.088,48.255],[121.150,48.299],[121.474,47.999],[121.524,47.899],[121.504,47.778],[121.599,47.724],[121.676,47.578],[121.999,47.574],[122.174,47.474],[122.206,47.398],[122.699,47.274],[122.799,47.124],[122.850,46.949],[122.973,46.776],[123.349,46.449],[123.497,46.031],[123.624,45.974],[123.676,45.800],[123.800,45.725],[123.949,45.724],[124.024,45.428],[124.124,45.349],[124.126,45.148],[124.199,45.024],[124.323,44.680],[124.374,44.649],[124.329,44.393],[123.923,44.446],[123.424,44.422],[122.940,44.300],[122.488,44.086],[121.997,43.703],[121.710,43.359],[121.281,42.983],[120.996,42.603],[120.793,42.620],[120.577,42.475],[120.549,42.375],[120.450,42.299],[120.349,42.125],[120.138,42.085],[119.720,42.280],[119.356,42.381],[118.861,42.429],[118.437,42.394],[118.160,42.587],[117.824,42.756],[117.470,42.873],[117.100,42.937],[116.601,42.937],[116.175,42.858],[115.750,42.937],[115.373,42.946],[115.001,42.900],[114.556,42.768],[114.123,42.872],[113.623,42.896],[113.129,42.823],[112.621,42.635],[112.220,42.773],[111.850,42.837],[111.473,42.846],[111.091,42.798],[110.774,42.956],[110.421,43.073],[109.800,43.149],[109.424,43.122],[109.058,43.039],[108.708,42.904],[108.290,42.654],[107.958,42.801],[107.596,42.901],[107.226,42.946],[106.851,42.937],[106.239,42.800],[105.898,42.649],[105.627,42.480],[105.545,42.518],[105.249,42.225],[104.750,42.225],[104.549,42.349],[104.375,42.375],[104.170,42.449],[103.806,42.424],[103.749,42.300],[103.599,42.175],[103.375,42.125],[102.625,42.125],[102.596,42.277],[102.476,42.398],[102.375,42.425],[102.075,42.750],[102.015,43.051],[101.923,43.074],[101.653,43.050],[101.499,42.975],[101.250,42.975],[101.195,43.024],[101.025,43.025],[100.799,43.174],[100.595,43.175],[100.574,42.900],[100.324,42.724],[100.027,42.576],[99.974,42.500],[99.525,42.475],[99.375,42.550],[99.341,42.648],[99.100,42.650],[98.898,42.849],[98.625,42.875],[98.449,42.949],[98.228,42.949],[98.099,42.875],[97.884,42.874],[97.799,42.625],[97.524,42.474],[97.199,42.175],[96.928,42.149],[96.824,42.050],[96.449,41.956],[96.179,42.187],[95.904,42.365],[95.575,42.675],[95.522,42.826],[95.380,42.921],[95.125,42.900],[94.776,43.024],[94.600,43.025],[94.448,43.100],[94.275,43.125],[93.975,43.400],[93.946,43.526],[93.779,43.621],[93.499,43.450],[92.975,43.475],[92.799,43.524],[92.475,43.525],[92.421,43.601],[92.175,43.700],[92.142,43.776],[91.609,43.872],[91.549,43.800],[91.300,43.699],[91.149,43.550],[90.727,43.549],[90.624,43.500],[90.077,43.499],[89.974,43.450],[89.600,43.425],[89.475,43.474],[89.525,43.532],[89.549,44.146],[89.475,44.275],[89.350,44.771],[89.300,44.850],[89.298,45.045],[88.975,45.224],[88.775,45.275],[88.725,45.399]]]}},{"type":"Feature","properties":{"focus":true,"kind":"state","approx":true,"color":"#8a4f6e","name":"Li Jue and Guo Si","name_zh":"李傕、郭汜","label":[110.12,34.47],"area":13.6},"geometry":{"type":"Polygon","coordinates":[[[107.020,34.350],[108.391,35.405],[108.858,36.203],[109.807,36.052],[110.207,36.299],[111.649,36.330],[112.092,35.547],[112.720,35.417],[113.150,34.592],[112.656,33.855],[111.827,33.896],[111.197,33.210],[110.015,33.531],[108.634,32.636],[108.547,32.773],[107.020,34.350]]]}},{"type":"Feature","properties":{"focus":true,"kind":"state","approx":true,"color":"#7a5195","name":"Yuan Shao","name_zh":"袁绍","label":[117.98,37.1],"area":20.1},"geometry":{"type":"MultiPolygon","coordinates":[[[[112.720,35.417],[113.669,35.850],[113.528,36.896],[113.458,37.121],[113.521,37.223],[113.583,38.478],[113.801,38.709],[113.987,39.162],[114.646,39.608],[114.978,39.521],[115.595,38.909],[116.862,39.023],[117.202,39.103],[117.595,38.798],[117.558,38.623],[117.655,38.425],[117.767,38.311],[118.016,38.183],[118.541,38.095],[118.799,38.126],[118.940,38.042],[119.027,37.903],[119.038,37.780],[119.089,37.700],[118.989,37.633],[118.954,37.330],[119.111,37.201],[119.286,37.138],[119.761,37.156],[119.883,37.251],[119.882,37.350],[120.155,37.495],[120.298,37.612],[120.257,37.678],[120.749,37.833],[121.049,37.725],[121.218,37.601],[121.388,37.578],[121.640,37.460],[121.959,37.446],[122.056,37.528],[122.109,37.522],[122.172,37.455],[122.336,37.405],[122.602,37.426],[122.666,37.402],[122.575,37.317],[122.587,37.181],[122.454,37.072],[122.523,37.002],[122.519,36.946],[122.340,36.832],[122.242,36.849],[122.160,36.958],[121.936,36.959],[121.053,36.611],[120.812,36.630],[120.807,36.599],[120.882,36.538],[120.895,36.444],[120.847,36.426],[120.774,36.453],[120.712,36.412],[120.682,36.338],[120.680,36.168],[120.393,36.053],[120.330,36.110],[120.325,36.224],[120.181,36.201],[120.101,36.111],[120.180,36.019],[120.284,35.984],[120.058,35.862],[119.978,35.740],[119.866,35.643],[119.720,35.588],[119.659,35.524],[118.175,35.969],[118.079,35.967],[117.942,36.192],[117.001,36.569],[116.886,36.889],[116.123,36.704],[115.931,36.422],[115.640,36.257],[115.235,36.464],[114.859,36.233],[114.227,35.453],[114.154,35.436],[113.883,34.697],[113.846,34.680],[113.150,34.592],[112.720,35.417]]],[[[121.106,38.920],[121.670,39.111],[121.627,39.220],[121.785,39.366],[121.781,39.395],[121.275,39.384],[121.299,39.454],[121.267,39.544],[121.506,39.642],[121.503,39.704],[122.173,39.210],[122.047,39.093],[121.864,38.996],[121.676,39.001],[121.637,38.955],[121.670,38.891],[121.649,38.865],[121.321,38.808],[121.206,38.743],[121.163,38.732],[121.106,38.920]]]]}},{"type":"Feature","properties":{"focus":true,"kind":"state","approx":true,"color":"#5f87a3","name":"Gongsun Zan","name_zh":"公孙瓒","label":[116.74,41.15],"area":25.8},"geometry":{"type":"Polygon","coordinates":[[[112.622,42.580],[113.142,42.775],[113.627,42.846],[114.116,42.822],[114.556,42.716],[115.012,42.851],[115.377,42.896],[115.745,42.887],[116.173,42.807],[116.727,42.896],[117.337,42.851],[117.918,42.660],[118.424,42.343],[118.860,42.379],[119.347,42.332],[119.702,42.233],[120.145,42.024],[120.445,41.812],[120.690,41.582],[120.968,40.720],[120.770,40.589],[120.479,40.230],[119.592,39.902],[119.393,39.754],[119.261,39.561],[119.224,39.408],[118.977,39.182],[118.625,39.176],[118.297,39.067],[118.149,39.193],[118.045,39.225],[117.867,39.191],[117.783,39.132],[117.595,38.798],[117.199,39.101],[116.865,39.024],[115.591,38.908],[114.980,39.519],[114.651,39.607],[113.987,39.162],[112.671,40.478],[112.622,42.580]]]}},{"type":"Feature","properties":{"focus":true,"kind":"state","approx":true,"color":"#7272a8","minor":true,"name":"Gongsun Du","name_zh":"公孙度","label":[125.0,40.45],"area":29.4},"geometry":{"type":"MultiPolygon","coordinates":[[[[120.690,41.581],[120.744,41.877],[120.860,42.226],[121.161,42.759],[121.402,43.037],[121.746,43.325],[122.120,43.752],[122.514,44.044],[123.074,44.292],[123.433,44.372],[123.799,44.399],[124.407,44.325],[124.978,44.104],[125.289,43.908],[125.567,43.667],[125.808,43.389],[126.059,42.969],[126.192,42.625],[126.272,42.266],[126.299,41.899],[126.265,41.450],[126.819,41.259],[127.335,40.932],[127.682,40.585],[128.009,40.069],[128.034,40.013],[127.966,39.994],[127.867,39.895],[127.566,39.777],[127.528,39.695],[127.548,39.461],[127.522,39.377],[127.450,39.395],[127.384,39.294],[127.402,39.206],[127.786,39.084],[127.972,38.897],[128.237,38.750],[128.142,38.274],[127.954,37.821],[127.602,37.320],[127.138,36.921],[126.819,36.740],[126.501,36.616],[126.476,36.687],[126.388,36.651],[126.180,36.691],[126.160,36.771],[126.217,36.870],[126.487,37.007],[126.577,37.019],[126.686,36.960],[126.784,36.948],[126.854,36.837],[126.970,36.928],[126.957,36.957],[126.868,36.975],[126.746,37.193],[126.785,37.299],[126.650,37.447],[126.655,37.551],[126.563,37.715],[126.618,37.787],[126.453,37.831],[126.520,37.736],[126.515,37.604],[126.460,37.610],[126.407,37.649],[126.369,37.772],[126.424,37.832],[126.415,37.859],[126.366,37.877],[126.208,37.829],[126.116,37.742],[126.049,37.866],[125.941,37.873],[125.765,37.983],[125.697,37.961],[125.581,37.815],[125.449,37.730],[125.357,37.724],[125.307,37.843],[124.988,37.931],[125.212,38.045],[125.209,38.080],[124.995,38.077],[124.690,38.129],[124.870,38.232],[124.880,38.341],[124.973,38.480],[125.067,38.556],[125.309,38.665],[125.517,38.688],[125.486,38.728],[125.298,38.742],[125.168,38.805],[125.157,38.871],[125.409,39.289],[125.355,39.526],[125.100,39.590],[124.777,39.755],[124.739,39.735],[124.732,39.652],[124.638,39.615],[124.557,39.789],[124.348,39.906],[124.370,39.982],[124.347,40.002],[124.267,39.924],[124.105,39.841],[123.760,39.822],[123.650,39.876],[123.580,39.786],[123.348,39.762],[123.226,39.686],[123.032,39.672],[122.335,39.366],[122.173,39.210],[121.503,39.704],[121.474,39.754],[121.517,39.844],[121.801,39.952],[122.189,40.356],[122.269,40.542],[122.178,40.602],[122.136,40.690],[121.858,40.842],[121.822,40.964],[121.729,40.846],[121.173,40.899],[120.968,40.720],[120.690,41.581]]],[[[126.318,36.612],[126.318,36.612],[126.373,36.579],[126.324,36.567],[126.318,36.612]]],[[[124.846,39.558],[124.889,39.602],[124.934,39.607],[124.905,39.536],[124.848,39.507],[124.846,39.558]]],[[[124.625,37.945],[124.635,37.980],[124.755,37.969],[124.696,37.920],[124.625,37.945]]]]}},{"type":"Feature","properties":{"focus":true,"kind":"state","approx":true,"color":"#3f6e8c","name":"Cao Cao","name_zh":"曹操","label":[116.04,35.56],"area":6.4},"geometry":{"type":"Polygon","coordinates":[[[113.883,34.697],[114.156,35.444],[114.232,35.459],[114.858,36.233],[115.234,36.467],[115.644,36.261],[115.931,36.423],[116.119,36.703],[116.900,36.893],[117.005,36.568],[117.947,36.191],[118.079,35.967],[117.792,35.666],[117.552,35.020],[117.507,34.986],[116.761,34.884],[116.497,34.599],[116.401,34.549],[115.959,34.787],[115.144,34.687],[115.051,34.317],[114.433,34.085],[113.883,34.697]]]}},{"type":"Feature","properties":{"focus":true,"kind":"state","approx":true,"color":"#a07d5a","name":"Liu Biao","name_zh":"刘表","label":[112.01,29.0],"area":43.1},"geometry":{"type":"Polygon","coordinates":[[[108.580,32.424],[108.634,32.636],[110.016,33.533],[111.193,33.213],[111.827,33.899],[112.656,33.855],[113.394,33.252],[113.566,33.032],[113.542,32.045],[113.634,31.803],[115.554,31.981],[115.684,31.831],[116.112,30.297],[115.832,30.009],[114.310,29.235],[114.429,28.471],[113.640,27.011],[115.161,24.662],[112.485,24.402],[111.790,24.914],[110.027,25.097],[109.449,25.447],[109.560,27.774],[109.354,28.150],[109.454,28.761],[110.164,29.537],[110.470,31.262],[108.580,32.424]]]}},{"type":"Feature","properties":{"focus":true,"kind":"state","approx":true,"color":"#9a8a4a","name":"Yuan Shu","name_zh":"袁术","label":[114.6,33.33],"area":9.7},"geometry":{"type":"Polygon","coordinates":[[[112.656,33.855],[113.150,34.592],[113.882,34.697],[114.440,34.088],[115.048,34.318],[115.131,34.686],[115.961,34.788],[116.401,34.549],[115.887,33.413],[115.906,33.252],[117.711,33.221],[117.978,33.042],[117.747,32.143],[115.684,31.830],[115.545,31.980],[113.632,31.798],[113.542,32.043],[113.564,33.034],[113.393,33.253],[112.656,33.855]]]}},{"type":"Feature","properties":{"focus":true,"kind":"state","approx":true,"color":"#4f7f5a","name":"Liu Bei","name_zh":"刘备","label":[118.25,33.68],"area":10.7},"geometry":{"type":"Polygon","coordinates":[[[115.886,33.410],[116.401,34.549],[116.498,34.601],[116.759,34.885],[117.502,34.985],[117.548,35.016],[117.793,35.668],[118.079,35.967],[118.172,35.970],[119.659,35.524],[119.526,35.358],[119.429,35.299],[119.352,35.113],[119.215,35.009],[119.166,34.851],[119.196,34.760],[119.351,34.749],[119.583,34.581],[119.964,34.447],[120.266,34.274],[120.499,33.716],[120.506,33.636],[120.615,33.490],[120.871,33.016],[120.897,32.843],[120.852,32.754],[120.124,31.973],[120.073,31.959],[120.081,31.927],[119.617,31.428],[119.538,31.465],[118.533,33.239],[117.978,33.042],[117.707,33.221],[115.900,33.248],[115.886,33.410]]]}},{"type":"Feature","properties":{"focus":true,"kind":"state","approx":true,"color":"#8a8a5a","minor":true,"name":"Bingzhou","name_zh":"并州诸郡","label":[109.63,39.4],"area":46.6},"geometry":{"type":"Polygon","coordinates":[[[104.720,39.636],[104.627,40.033],[104.603,40.522],[104.674,41.007],[104.840,41.469],[105.092,41.889],[105.420,42.252],[105.814,42.544],[106.257,42.753],[106.733,42.872],[107.344,42.887],[107.825,42.792],[108.294,42.599],[108.621,42.804],[108.958,42.953],[109.432,43.072],[109.800,43.099],[110.407,43.025],[110.756,42.909],[111.082,42.747],[111.477,42.796],[111.844,42.787],[112.207,42.725],[112.556,42.609],[112.622,42.580],[112.672,40.479],[113.987,39.162],[113.801,38.709],[113.583,38.471],[113.520,37.219],[113.460,37.118],[113.528,36.897],[113.673,35.846],[112.720,35.418],[112.092,35.545],[111.640,36.329],[110.210,36.299],[109.810,36.051],[108.858,36.203],[107.950,37.197],[107.942,38.680],[104.720,39.636]]]}},{"type":"Feature","properties":{"focus":true,"kind":"state","approx":true,"color":"#9a6a3a","name":"Han Sui and Ma Teng","name_zh":"韩遂、马腾","label":[104.8,35.86],"area":32.0},"geometry":{"type":"Polygon","coordinates":[[[100.901,36.134],[104.456,37.697],[104.576,39.509],[104.719,39.636],[107.949,38.679],[107.951,37.198],[108.858,36.203],[108.393,35.406],[107.020,34.350],[106.850,34.359],[105.994,32.684],[104.751,32.530],[103.767,33.446],[102.168,33.550],[101.771,34.011],[101.590,34.330],[101.483,34.594],[101.140,35.130],[100.974,35.592],[100.901,36.134]]]}},{"type":"Feature","properties":{"focus":true,"kind":"state","approx":true,"color":"#a89a72","minor":true,"name":"Hexi commanderies","name_zh":"河西诸郡","label":[98.43,39.35],"area":52.4},"geometry":{"type":"Polygon","coordinates":[[[96.432,38.345],[96.403,38.349],[95.945,37.995],[95.616,37.830],[95.147,37.687],[94.659,37.640],[94.172,37.688],[93.703,37.830],[93.270,38.061],[92.892,38.372],[92.581,38.751],[92.350,39.183],[92.207,39.652],[92.160,40.140],[92.208,40.627],[92.350,41.096],[92.581,41.529],[92.892,41.907],[93.270,42.218],[93.703,42.449],[94.172,42.591],[94.537,42.636],[95.147,42.591],[95.729,42.399],[96.246,42.072],[96.512,41.819],[96.741,41.536],[97.214,41.894],[97.774,42.142],[98.377,42.246],[98.987,42.201],[99.342,42.103],[99.678,41.954],[99.989,41.757],[100.355,41.429],[100.695,41.417],[101.057,41.355],[101.628,41.134],[102.036,40.862],[102.456,40.424],[102.762,40.426],[103.127,40.382],[103.709,40.189],[104.225,39.862],[104.576,39.510],[104.462,37.698],[100.901,36.134],[100.631,36.435],[100.327,36.433],[99.962,36.477],[99.380,36.670],[98.960,36.921],[98.594,37.250],[98.012,37.298],[97.430,37.490],[96.913,37.817],[96.647,38.070],[96.432,38.345]]]}},{"type":"Feature","properties":{"focus":true,"kind":"state","approx":true,"color":"#a3727a","name":"Zhang Lu","name_zh":"张鲁","label":[107.11,33.56],"area":4.1},"geometry":{"type":"Polygon","coordinates":[[[105.994,32.684],[106.854,34.368],[107.020,34.350],[108.548,32.772],[108.634,32.636],[108.580,32.424],[107.740,31.442],[105.994,32.684]]]}},{"type":"Feature","properties":{"focus":true,"kind":"state","approx":true,"color":"#7d6b5a","name":"Liu Zhang","name_zh":"刘璋","label":[104.62,27.91],"area":97.2},"geometry":{"type":"Polygon","coordinates":[[[99.750,27.531],[99.774,27.551],[99.753,28.022],[99.798,28.387],[99.940,28.856],[100.105,29.185],[100.317,29.486],[100.663,29.832],[100.964,30.044],[101.349,30.237],[101.357,30.395],[101.207,30.774],[101.112,31.255],[101.112,31.744],[101.174,32.107],[101.339,32.568],[101.521,32.889],[101.832,33.267],[102.169,33.549],[103.769,33.447],[104.753,32.531],[105.994,32.684],[107.741,31.443],[108.580,32.424],[110.472,31.270],[110.164,29.535],[109.453,28.756],[109.355,28.151],[109.560,27.780],[109.449,25.447],[107.310,24.102],[106.792,24.174],[106.330,24.340],[105.910,24.591],[105.632,24.832],[105.321,25.210],[105.139,25.531],[104.974,25.992],[104.903,26.477],[104.927,26.967],[105.078,27.532],[104.758,27.797],[104.642,27.174],[104.510,26.831],[104.371,26.571],[104.608,26.289],[104.804,25.978],[105.025,25.407],[105.099,24.800],[105.025,24.192],[104.804,23.621],[104.456,23.125],[103.989,22.721],[103.441,22.446],[103.087,22.347],[102.722,22.303],[102.354,22.312],[101.992,22.374],[101.643,22.490],[101.314,22.655],[101.014,22.867],[100.725,23.137],[100.239,22.840],[99.777,22.674],[99.292,22.603],[98.682,22.647],[98.213,22.790],[97.781,23.021],[97.402,23.332],[97.161,23.610],[96.965,23.921],[96.777,24.374],[96.697,24.732],[96.670,25.099],[96.697,25.466],[96.777,25.825],[96.909,26.168],[97.091,26.488],[97.317,26.778],[97.584,27.032],[97.884,27.244],[98.213,27.409],[98.562,27.525],[98.925,27.587],[99.292,27.596],[99.750,27.531]]]}},{"type":"Feature","properties":{"focus":true,"kind":"state","approx":true,"color":"#6a8aa0","minor":true,"name":"Yangzhou commanderies","name_zh":"扬州诸郡","label":[117.95,28.68],"area":45.5},"geometry":{"type":"MultiPolygon","coordinates":[[[[122.331,29.934],[122.401,29.950],[122.394,29.846],[122.367,29.852],[122.331,29.934]]],[[[121.969,30.143],[122.110,30.139],[122.284,30.067],[122.322,30.031],[122.295,29.963],[122.281,29.943],[122.157,30.000],[122.024,30.013],[121.977,30.063],[121.969,30.143]]],[[[122.042,29.735],[122.062,29.772],[122.119,29.782],[122.169,29.660],[122.042,29.735]]],[[[113.637,27.008],[114.428,28.468],[114.304,29.235],[115.831,30.009],[116.108,30.295],[115.685,31.830],[117.739,32.143],[117.978,33.042],[118.533,33.246],[119.544,31.462],[119.625,31.438],[120.082,31.927],[120.194,31.907],[120.497,32.019],[120.715,31.983],[120.792,31.818],[121.055,31.719],[121.204,31.628],[121.351,31.484],[121.660,31.319],[121.786,31.162],[121.877,30.917],[121.769,30.870],[121.528,30.841],[121.419,30.790],[121.309,30.699],[120.999,30.558],[120.897,30.392],[120.821,30.354],[120.452,30.387],[120.262,30.281],[120.352,30.248],[120.494,30.303],[120.642,30.134],[120.904,30.161],[121.159,30.301],[121.258,30.303],[121.432,30.226],[121.678,29.979],[122.082,29.870],[121.905,29.779],[121.560,29.521],[121.578,29.495],[121.689,29.511],[121.887,29.627],[121.941,29.605],[121.968,29.490],[121.917,29.135],[121.853,29.128],[121.790,29.224],[121.716,29.255],[121.534,29.235],[121.461,29.151],[121.664,29.010],[121.679,28.953],[121.609,28.903],[121.662,28.851],[121.630,28.767],[121.519,28.711],[121.478,28.643],[121.609,28.292],[121.509,28.322],[121.354,28.229],[121.272,28.222],[121.219,28.337],[121.147,28.327],[121.097,28.287],[120.958,28.037],[120.892,28.003],[120.764,28.004],[120.832,27.937],[120.832,27.891],[120.686,27.745],[120.664,27.639],[120.593,27.582],[120.629,27.482],[120.607,27.412],[120.384,27.155],[120.276,27.092],[120.138,26.886],[120.086,26.671],[120.042,26.633],[119.967,26.586],[119.882,26.610],[119.878,26.674],[119.842,26.689],[119.801,26.812],[119.710,26.728],[119.594,26.762],[119.637,26.628],[119.725,26.609],[119.784,26.546],[119.881,26.334],[119.692,26.236],[119.463,26.054],[119.313,26.062],[119.192,26.111],[119.171,26.091],[119.261,25.977],[119.332,25.949],[119.418,25.955],[119.500,26.009],[119.618,26.003],[119.648,25.918],[119.553,25.698],[119.540,25.595],[119.622,25.391],[119.592,25.368],[119.419,25.458],[119.180,25.449],[119.149,25.411],[119.167,25.359],[119.285,25.232],[119.235,25.205],[118.974,25.205],[118.917,25.128],[118.955,25.004],[118.909,24.928],[118.644,24.829],[118.719,24.746],[118.657,24.621],[118.560,24.580],[118.412,24.600],[118.295,24.572],[118.195,24.625],[118.091,24.626],[118.015,24.560],[118.005,24.482],[117.853,24.472],[117.879,24.397],[118.024,24.379],[118.056,24.246],[117.866,24.052],[117.532,24.332],[117.291,24.610],[117.040,25.030],[116.879,25.436],[116.489,25.091],[116.068,24.839],[115.487,24.647],[115.270,24.615],[115.161,24.662],[113.637,27.008]]],[[[120.124,31.973],[120.853,32.754],[120.861,32.655],[120.990,32.566],[121.293,32.457],[121.400,32.371],[121.407,32.202],[121.489,32.121],[121.751,31.992],[121.832,31.899],[121.866,31.703],[121.680,31.712],[121.350,31.858],[121.145,31.842],[120.973,31.869],[120.789,32.032],[120.525,32.104],[120.184,31.966],[120.124,31.973]]],[[[121.211,31.805],[121.464,31.756],[121.492,31.694],[121.576,31.638],[121.808,31.552],[121.862,31.492],[121.780,31.463],[121.519,31.549],[121.336,31.643],[121.211,31.805]]],[[[120.193,23.766],[120.629,24.478],[120.836,24.723],[121.040,25.032],[121.362,25.158],[121.517,25.276],[121.593,25.275],[121.642,25.232],[121.378,24.711],[121.067,24.332],[120.688,24.021],[120.193,23.766]]],[[[121.131,28.062],[121.134,28.135],[121.205,28.204],[121.250,28.145],[121.251,28.086],[121.131,28.062]]],[[[119.696,25.590],[119.722,25.638],[119.777,25.653],[119.838,25.591],[119.813,25.510],[119.832,25.479],[119.746,25.410],[119.700,25.432],[119.720,25.548],[119.696,25.590]]],[[[118.287,24.476],[118.340,24.471],[118.407,24.522],[118.451,24.455],[118.432,24.414],[118.295,24.436],[118.287,24.476]]],[[[118.076,24.501],[118.103,24.552],[118.182,24.496],[118.149,24.436],[118.090,24.446],[118.076,24.501]]]]}},{"type":"Feature","properties":{"focus":true,"kind":"state","approx":true,"color":"#6a9a8a","minor":true,"name":"Shi Xie","name_zh":"士燮","label":[104.6,19.87],"area":53.3},"geometry":{"type":"MultiPolygon","coordinates":[[[[103.386,20.613],[103.353,20.927],[103.362,21.295],[103.424,21.657],[103.540,22.006],[103.705,22.335],[103.917,22.635],[104.455,23.124],[105.008,23.403],[105.362,23.502],[105.727,23.546],[106.094,23.537],[106.457,23.475],[107.093,23.227],[107.174,23.707],[107.310,24.102],[109.449,25.447],[110.029,25.097],[111.791,24.914],[112.488,24.402],[115.161,24.662],[115.271,24.614],[115.464,24.308],[115.685,23.737],[115.756,23.252],[115.740,22.827],[115.640,22.852],[115.567,22.826],[115.497,22.718],[115.382,22.718],[115.190,22.815],[114.919,22.684],[114.853,22.616],[114.750,22.626],[114.710,22.735],[114.649,22.751],[114.546,22.621],[114.554,22.528],[114.346,22.592],[114.276,22.547],[114.287,22.462],[114.335,22.396],[114.292,22.371],[114.207,22.195],[114.138,22.268],[114.178,22.331],[114.034,22.375],[113.937,22.365],[113.902,22.396],[113.896,22.428],[114.006,22.506],[113.828,22.607],[113.754,22.733],[113.661,22.801],[113.586,23.020],[113.598,23.105],[113.522,23.102],[113.450,23.054],[113.433,22.921],[113.520,22.851],[113.563,22.757],[113.426,22.858],[113.394,22.922],[113.336,22.898],[113.553,22.594],[113.551,22.406],[113.588,22.350],[113.548,22.222],[113.365,22.164],[113.266,22.088],[113.149,22.075],[113.074,22.190],[113.009,22.118],[112.983,21.938],[112.953,21.907],[112.903,21.881],[112.799,21.940],[112.662,21.860],[112.586,21.776],[112.421,21.880],[112.430,21.953],[112.381,21.979],[112.389,21.801],[112.304,21.741],[111.955,21.847],[111.873,21.717],[111.773,21.715],[111.602,21.559],[111.395,21.535],[111.319,21.486],[111.025,21.510],[110.996,21.430],[110.770,21.385],[110.567,21.214],[110.458,21.230],[110.413,21.304],[110.374,21.172],[110.296,21.092],[110.385,21.093],[110.426,21.060],[110.521,21.083],[110.538,21.018],[110.504,20.968],[110.421,21.006],[110.280,21.001],[110.264,21.025],[110.301,21.074],[110.281,21.093],[110.194,21.037],[110.155,20.945],[110.186,20.859],[110.365,20.837],[110.388,20.790],[110.317,20.671],[110.511,20.518],[110.517,20.460],[110.449,20.355],[110.344,20.294],[110.123,20.263],[109.938,20.295],[109.882,20.364],[109.885,20.413],[109.963,20.402],[109.968,20.446],[109.860,20.514],[109.792,20.621],[109.802,20.717],[109.662,20.916],[109.703,21.050],[109.681,21.131],[109.759,21.227],[109.779,21.337],[109.919,21.380],[109.921,21.476],[109.829,21.483],[109.769,21.544],[109.686,21.524],[109.595,21.670],[109.544,21.691],[109.543,21.537],[109.346,21.453],[109.081,21.440],[109.129,21.539],[109.102,21.589],[109.027,21.626],[108.771,21.630],[108.615,21.770],[108.587,21.900],[108.480,21.889],[108.525,21.671],[108.502,21.633],[108.444,21.607],[108.335,21.694],[108.246,21.558],[108.146,21.564],[108.066,21.525],[107.808,21.495],[107.637,21.368],[107.412,21.285],[107.354,21.055],[107.164,20.948],[107.068,20.997],[106.886,20.950],[106.684,20.992],[106.753,20.735],[106.554,20.529],[106.572,20.392],[106.517,20.288],[106.165,19.992],[106.061,19.986],[105.982,19.935],[105.815,19.589],[105.791,19.294],[105.716,19.127],[105.639,19.055],[105.622,18.967],[105.888,18.502],[106.065,18.316],[106.239,18.220],[106.498,17.946],[106.460,17.871],[106.469,17.694],[106.735,17.368],[107.119,17.055],[107.183,16.896],[107.355,16.793],[107.549,16.642],[107.551,16.600],[107.724,16.487],[107.836,16.323],[108.029,16.331],[108.204,16.100],[108.267,16.089],[108.286,15.988],[108.395,15.872],[108.577,15.585],[108.821,15.377],[108.919,15.087],[108.778,14.947],[108.278,14.595],[107.707,14.374],[107.345,14.312],[106.977,14.303],[106.612,14.348],[106.257,14.446],[105.921,14.595],[105.610,14.792],[105.332,15.032],[105.021,15.410],[104.790,15.843],[104.627,16.432],[104.603,16.922],[104.702,17.525],[104.260,17.791],[103.897,18.121],[103.605,18.514],[103.357,19.074],[103.277,19.432],[103.250,19.800],[103.277,20.167],[103.386,20.613]]],[[[107.397,21.104],[107.476,21.268],[107.602,21.216],[107.458,21.091],[107.397,21.104]]],[[[114.043,22.333],[113.997,22.210],[113.877,22.210],[113.838,22.241],[114.043,22.333]]],[[[106.795,20.927],[106.855,20.858],[106.854,20.796],[106.769,20.864],[106.795,20.927]]],[[[112.712,21.697],[112.782,21.772],[112.862,21.752],[112.802,21.697],[112.771,21.581],[112.712,21.697]]],[[[112.525,21.623],[112.559,21.674],[112.647,21.710],[112.643,21.639],[112.525,21.623]]],[[[108.645,19.142],[108.650,19.265],[108.693,19.337],[109.233,19.722],[109.232,19.753],[109.177,19.768],[109.219,19.843],[109.314,19.904],[109.509,19.903],[109.584,19.970],[109.651,19.984],[109.905,19.962],[110.078,19.992],[110.172,20.053],[110.371,20.017],[110.394,20.059],[110.571,19.987],[110.598,20.097],[110.652,20.137],[110.808,20.015],[110.888,19.991],[110.951,19.920],[110.488,19.521],[109.941,19.246],[109.344,19.112],[108.977,19.103],[108.645,19.142]]],[[[108.677,18.739],[108.867,18.567],[109.051,18.361],[108.701,18.535],[108.677,18.739]]],[[[107.399,20.903],[107.476,20.951],[107.551,21.033],[107.521,20.926],[107.399,20.903]]],[[[106.910,20.824],[106.953,20.867],[107.043,20.836],[107.063,20.799],[107.031,20.747],[106.990,20.743],[106.910,20.824]]]]}}]}