{"type":"FeatureCollection","features":[{"type":"Feature","properties":{"name":"Saka Kingdom","name_zh":"塞种诸国","focus":false,"label":[71.72,26.06],"area":106.5,"color":"#7d6b5a"},"geometry":{"type":"Polygon","coordinates":[[[70.825,31.05],[70.775,31.15],[70.775,31.325],[70.825,31.475],[70.925,31.475],[71.175,31.35],[71.6,31.35],[71.725,31.275],[71.85,31.275],[71.95,31.375],[72.1,31.4],[72.15,31.7],[72.275,31.875],[72.275,32.05],[72.45,32.225],[72.475,32.325],[72.625,32.425],[72.95,32.425],[73.125,32.325],[73.275,32.3],[73.475,32.5],[73.975,32.5],[74.0,32.625],[74.25,32.825],[74.55,32.925],[74.775,32.95],[74.775,33.175],[74.925,33.2],[75.0,33.275],[75.025,33.475],[74.6,33.575],[74.525,33.825],[74.65,33.925],[74.75,34.075],[74.975,33.975],[75.125,34.175],[75.225,34.225],[75.4,34.225],[75.525,34.275],[75.7,34.225],[75.75,34.05],[75.85,33.975],[76.15,34.0],[76.225,33.95],[76.275,33.75],[76.375,33.625],[76.5,33.6],[76.625,33.425],[76.6,33.375],[76.55,33.325],[76.35,33.325],[76.275,33.225],[76.05,33.225],[75.825,33.0],[75.825,32.925],[75.675,32.875],[75.75,32.75],[75.75,32.15],[75.55,32.05],[75.55,31.725],[75.35,31.525],[75.4,31.3],[75.4,30.95],[75.35,30.9],[75.35,30.55],[75.4,30.375],[75.4,30.125],[75.45,29.95],[75.45,29.775],[75.575,29.375],[75.6,29.025],[75.65,28.9],[75.625,28.575],[75.675,28.5],[75.675,28.0],[75.725,27.9],[75.575,27.725],[75.55,27.55],[75.7,27.5],[75.8,27.35],[75.8,27.0],[75.875,26.975],[76.0,26.825],[76.0,26.725],[76.1,26.575],[76.225,26.525],[76.325,26.55],[76.325,26.425],[76.45,26.225],[76.6,26.225],[76.7,26.1],[76.7,25.975],[76.975,26.15],[77.2,26.225],[77.25,25.925],[77.45,25.725],[77.6,25.7],[77.6,25.575],[77.725,25.4],[77.875,25.3],[78.25,25.3],[78.375,25.2],[78.825,25.05],[78.925,24.7],[78.975,24.675],[79.0,24.375],[79.05,24.2],[78.925,24.1],[78.775,23.7],[78.7,23.6],[79.05,23.425],[79.125,23.2],[79.125,23.075],[79.45,23.075],[79.6,22.725],[79.7,22.625],[79.575,22.4],[79.45,22.35],[79.45,22.225],[79.4,22.225],[79.175,22.275],[78.95,22.225],[78.825,21.9],[78.65,21.75],[78.425,21.75],[78.05,21.55],[77.575,21.5],[77.575,20.95],[77.5,20.825],[77.425,20.475],[77.325,20.35],[77.275,20.2],[77.175,20.1],[77.025,20.075],[76.925,20.0],[76.45,20.025],[76.325,20.075],[76.25,19.95],[75.95,19.95],[75.925,19.7],[75.875,19.625],[75.85,19.4],[75.55,19.375],[75.35,19.5],[75.225,19.5],[75.125,19.375],[75.05,19.375],[74.825,19.225],[74.575,19.2],[74.5,19.125],[74.35,19.125],[74.25,19.2],[73.9,19.325],[73.8,19.15],[73.7,19.075],[73.65,18.925],[73.525,18.825],[73.475,18.525],[73.575,18.3],[73.575,18.15],[73.65,18.05],[73.7,17.75],[73.775,17.625],[73.725,17.425],[73.475,17.45],[73.25,17.325],[73.205,17.325],[73.149,17.527],[73.156,17.622],[73.047,17.907],[72.994,18.098],[72.972,18.259],[72.943,18.366],[72.917,18.576],[72.875,18.643],[72.871,18.683],[72.899,18.779],[72.938,18.853],[72.911,19.034],[72.901,19.015],[72.835,18.976],[72.803,19.079],[72.803,19.219],[72.795,19.252],[72.812,19.299],[72.872,19.291],[72.867,19.329],[72.788,19.363],[72.764,19.413],[72.756,19.451],[72.799,19.52],[72.727,19.578],[72.697,19.757],[72.676,19.798],[72.668,19.831],[72.709,20.078],[72.881,20.563],[72.894,20.673],[72.879,20.829],[72.841,20.952],[72.825,21.079],[72.789,21.122],[72.752,21.129],[72.692,21.178],[72.624,21.372],[72.687,21.436],[72.721,21.46],[72.72,21.467],[72.668,21.456],[72.613,21.462],[72.709,21.544],[72.687,21.692],[72.543,21.697],[72.592,21.878],[72.644,21.938],[72.677,21.958],[72.678,21.969],[72.617,21.962],[72.522,21.976],[72.547,22.123],[72.319,22.115],[72.25,22.038],[72.244,22.028],[72.236,22.023],[72.232,22.019],[72.127,21.828],[72.129,21.787],[72.171,21.774],[72.21,21.728],[72.257,21.661],[72.255,21.59],[72.288,21.549],[72.256,21.352],[72.12,21.155],[71.894,20.989],[71.024,20.657],[70.855,20.65],[70.467,20.777],[70.209,20.947],[70.0,21.144],[69.126,21.968],[68.894,22.285],[69.492,22.248],[69.968,22.351],[70.0,22.371],[70.0,22.545],[70.006,22.548],[70.084,22.554],[70.177,22.573],[70.328,22.816],[70.356,22.854],[70.045,22.777],[70.0,22.778],[69.664,22.789],[69.107,22.898],[68.79,23.028],[68.372,23.326],[68.072,23.675],[68.046,23.764],[67.692,23.814],[67.486,23.928],[67.315,24.092],[67.204,24.588],[67.153,24.651],[66.654,24.783],[66.7,25.114],[66.62,25.317],[66.432,25.488],[67.387,28.226],[70.0,30.984],[70.0,30.775],[70.45,30.775],[70.55,30.825],[70.775,30.825],[70.825,31.05]]]}},{"type":"Feature","properties":{"name":"Satavahanihara","name_zh":"","focus":false,"label":[78.04,17.4],"area":56.5,"color":"#9a8a4a"},"geometry":{"type":"Polygon","coordinates":[[[73.775,17.625],[73.7,17.75],[73.65,18.05],[73.575,18.15],[73.575,18.3],[73.475,18.525],[73.525,18.825],[73.65,18.925],[73.7,19.075],[73.8,19.15],[73.9,19.325],[74.25,19.2],[74.35,19.125],[74.5,19.125],[74.575,19.2],[74.825,19.225],[75.05,19.375],[75.125,19.375],[75.225,19.5],[75.35,19.5],[75.55,19.375],[75.85,19.4],[75.875,19.625],[75.925,19.7],[75.95,19.95],[76.25,19.95],[76.325,20.075],[76.45,20.025],[76.925,20.0],[77.025,20.075],[77.175,20.1],[77.275,20.2],[77.325,20.35],[77.425,20.475],[77.5,20.825],[77.575,20.95],[77.575,21.5],[78.05,21.55],[78.425,21.75],[78.65,21.75],[78.825,21.9],[78.95,22.225],[79.175,22.275],[79.4,22.225],[79.475,22.225],[79.475,22.1],[79.65,22.0],[79.85,21.975],[79.95,21.9],[80.15,21.875],[80.2,21.65],[80.175,21.65],[80.1,21.575],[80.175,21.325],[80.25,21.225],[80.25,21.075],[80.4,20.925],[80.275,20.525],[80.275,20.3],[80.35,20.175],[80.35,19.975],[80.525,19.65],[80.925,19.625],[80.975,19.525],[81.15,19.475],[81.35,19.575],[81.6,19.6],[81.775,19.55],[82.2,19.325],[82.325,19.175],[82.425,19.125],[82.5,19.0],[82.725,18.875],[82.9,18.7],[82.925,18.5],[82.9,18.175],[82.8,18.075],[82.9,17.8],[83.125,17.575],[83.127,17.556],[83.021,17.491],[82.977,17.462],[82.956,17.452],[82.353,17.085],[82.301,16.893],[82.307,16.879],[82.35,16.825],[82.36,16.783],[82.339,16.707],[82.327,16.664],[82.259,16.56],[82.142,16.485],[82.049,16.447],[81.788,16.328],[81.596,16.302],[81.369,16.346],[81.253,16.225],[81.087,15.826],[80.963,15.723],[80.854,15.778],[80.826,15.766],[80.812,15.799],[80.735,15.837],[80.459,15.773],[80.3,15.645],[80.089,15.175],[80.116,14.741],[80.165,14.578],[80.179,14.478],[80.17,14.349],[80.144,14.3],[80.161,14.015],[80.224,13.858],[80.244,13.773],[80.246,13.686],[80.307,13.485],[80.266,13.521],[80.233,13.606],[80.156,13.714],[80.094,13.643],[80.215,13.476],[80.29,13.437],[80.342,13.361],[80.316,13.203],[80.315,13.175],[79.7,13.175],[79.5,13.2],[79.425,13.15],[79.175,13.15],[78.975,13.225],[78.75,13.25],[78.5,13.15],[78.225,13.175],[77.9,13.175],[77.85,13.125],[77.4,13.15],[77.275,13.125],[77.175,13.0],[77.0,13.0],[76.875,12.95],[76.525,12.9],[76.475,12.95],[76.275,12.95],[76.1,13.0],[76.0,12.925],[75.8,12.9],[75.75,12.8],[75.75,12.55],[75.675,12.375],[75.425,12.45],[75.275,12.575],[74.943,12.575],[74.868,12.845],[74.803,12.977],[74.771,13.077],[74.682,13.507],[74.682,13.584],[74.671,13.668],[74.608,13.85],[74.499,14.046],[74.467,14.169],[74.467,14.217],[74.397,14.407],[74.393,14.433],[74.25,14.681],[74.223,14.709],[74.089,14.902],[74.041,14.949],[73.949,15.075],[73.884,15.306],[73.801,15.397],[73.838,15.397],[73.728,15.662],[73.68,15.709],[73.608,15.871],[73.476,16.054],[73.454,16.152],[73.338,16.46],[73.239,17.199],[73.205,17.325],[73.25,17.325],[73.475,17.45],[73.725,17.425],[73.775,17.625]]]}},{"type":"Feature","properties":{"name":"Gupta Empire","name_zh":"笈多王朝","focus":false,"label":[79.91,27.37],"area":107.2,"color":"#4f8f86"},"geometry":{"type":"MultiPolygon","coordinates":[[[[87.675,27.825],[87.925,27.875],[87.975,27.825],[88.35,27.85],[88.5,27.95],[88.9,27.925],[89.075,27.625],[89.2,27.75],[89.475,27.75],[89.475,27.9],[89.55,28.0],[89.7,28.075],[89.925,28.075],[90.0,28.15],[90.25,28.2],[90.375,28.05],[90.55,28.075],[90.625,28.0],[90.95,28.025],[90.975,28.075],[91.275,28.175],[91.325,28.075],[91.55,28.1],[91.65,28.025],[92.0,28.05],[92.2,27.95],[92.175,27.7],[91.95,27.4],[92.25,27.175],[92.275,27.05],[92.55,26.775],[92.6,26.625],[92.85,26.625],[92.875,26.675],[93.15,26.65],[93.225,26.725],[93.375,26.725],[93.375,26.425],[93.525,26.175],[93.675,26.125],[93.775,25.925],[93.975,25.75],[94.0,25.575],[94.075,25.475],[94.075,25.325],[93.925,25.275],[93.825,25.0],[93.9,24.925],[93.9,24.7],[93.825,24.425],[93.75,24.35],[93.725,24.025],[93.625,23.85],[93.625,23.75],[93.375,23.575],[93.375,23.5],[93.25,23.425],[93.0,23.45],[92.85,23.4],[92.7,23.45],[92.5,23.2],[92.425,23.2],[92.175,22.925],[92.0,22.85],[91.975,22.75],[91.69,22.509],[91.617,22.599],[91.571,22.543],[91.41,22.72],[91.081,22.561],[90.904,22.56],[90.642,22.928],[90.604,22.946],[90.562,22.975],[90.561,22.977],[90.519,22.942],[90.552,22.905],[90.493,22.89],[90.483,22.68],[90.651,22.325],[90.651,22.28],[90.68,22.327],[90.675,22.445],[90.649,22.541],[90.565,22.618],[90.56,22.673],[90.523,22.748],[90.503,22.835],[90.596,22.864],[90.672,22.813],[90.683,22.785],[90.699,22.714],[90.737,22.639],[90.868,22.485],[90.866,22.391],[90.83,22.16],[90.778,22.089],[90.604,22.054],[90.58,22.057],[90.38,22.019],[90.274,21.778],[90.157,21.733],[89.869,22.133],[89.796,21.832],[89.67,21.719],[89.578,21.7],[89.485,21.884],[89.452,21.821],[89.354,21.721],[89.279,21.707],[89.275,21.708],[89.233,21.655],[89.072,21.774],[89.045,21.724],[89.052,21.654],[89.004,21.647],[88.994,21.629],[89.025,21.546],[88.88,21.514],[88.723,21.539],[88.699,21.653],[88.695,21.662],[88.694,21.677],[88.656,21.857],[88.581,21.889],[88.567,21.832],[88.6,21.714],[88.585,21.66],[88.446,21.614],[88.414,21.639],[88.377,21.577],[88.299,21.551],[88.254,21.622],[88.122,21.636],[88.057,21.694],[88.099,21.794],[88.115,21.84],[88.053,21.938],[87.867,21.696],[87.64,21.563],[86.937,21.288],[86.906,21.261],[86.9,21.275],[86.775,21.4],[86.6,21.425],[86.325,21.675],[86.3,22.0],[86.375,22.075],[86.375,22.325],[86.475,22.375],[86.475,22.5],[86.55,22.575],[86.55,22.775],[86.35,22.95],[86.325,23.2],[86.125,23.25],[86.075,23.4],[85.925,23.525],[85.975,23.675],[85.975,23.9],[85.85,24.1],[85.925,24.125],[85.95,24.275],[86.175,24.35],[86.15,24.55],[86.075,24.65],[86.075,25.125],[86.125,25.175],[86.1,25.35],[86.05,25.35],[85.925,25.55],[85.925,25.925],[85.85,26.05],[85.85,26.275],[85.975,26.5],[86.025,26.7],[86.1,26.8],[86.2,27.1],[86.275,27.15],[86.25,27.325],[86.425,27.5],[86.475,27.5],[86.575,27.8],[86.525,27.825],[86.55,28.025],[86.625,28.025],[87.375,27.975],[87.55,28.025],[87.675,27.825]]],[[[91.456,22.617],[91.484,22.577],[91.523,22.491],[91.548,22.425],[91.557,22.382],[91.51,22.353],[91.467,22.378],[91.411,22.476],[91.439,22.599],[91.456,22.617]]],[[[91.074,22.45],[91.079,22.52],[91.115,22.45],[91.074,22.45]]],[[[77.2,33.025],[77.325,33.05],[77.45,32.975],[77.45,32.9],[77.65,32.65],[77.8,32.55],[77.925,32.55],[78.025,32.45],[78.2,32.4],[78.2,32.3],[78.325,32.25],[78.5,32.25],[78.7,32.05],[78.85,31.95],[78.875,31.65],[78.8,31.6],[78.8,31.375],[79.15,31.4],[79.275,31.275],[79.375,31.1],[79.5,31.1],[79.6,31.025],[79.85,31.0],[79.925,30.925],[80.15,30.9],[80.3,30.725],[80.35,30.6],[80.525,30.6],[80.825,30.5],[80.9,30.6],[81.075,30.6],[81.275,30.425],[81.45,30.375],[81.625,30.4],[82.0,30.4],[82.15,30.3],[82.35,30.05],[82.65,29.875],[83.0,29.55],[83.0,29.375],[83.2,29.3],[83.2,29.225],[83.375,29.1],[83.65,29.075],[83.75,28.9],[83.9,28.85],[83.95,28.775],[84.125,28.775],[84.25,28.9],[84.475,28.85],[84.55,28.775],[84.675,28.825],[85.0,28.825],[85.175,28.575],[85.55,28.55],[85.675,28.4],[85.825,28.3],[86.125,28.225],[86.1,27.95],[85.975,27.725],[85.95,27.575],[85.8,27.55],[85.675,27.325],[85.05,26.725],[84.925,26.575],[84.85,26.575],[84.4,26.1],[84.375,25.925],[84.525,25.875],[84.5,25.725],[84.3,25.775],[84.275,25.725],[84.125,25.75],[83.9,25.525],[83.75,25.525],[83.625,25.6],[83.6,25.475],[83.6,25.025],[83.55,24.9],[83.55,24.675],[83.325,24.6],[83.35,24.325],[83.35,23.875],[83.4,23.75],[83.4,23.425],[83.525,23.225],[83.4,23.225],[83.275,23.125],[83.25,22.875],[83.05,22.875],[83.0,22.75],[82.825,22.6],[82.7,22.675],[82.4,22.525],[82.225,22.525],[82.15,22.375],[82.025,22.25],[81.75,22.2],[81.7,22.25],[81.475,22.25],[81.3,22.325],[81.25,22.4],[81.025,22.225],[80.775,21.85],[80.45,21.875],[80.4,21.725],[80.275,21.65],[80.2,21.65],[80.15,21.875],[79.95,21.9],[79.85,21.975],[79.65,22.0],[79.475,22.1],[79.475,22.225],[79.45,22.225],[79.45,22.35],[79.575,22.4],[79.7,22.625],[79.6,22.725],[79.45,23.075],[79.125,23.075],[79.125,23.2],[79.05,23.425],[78.7,23.6],[78.775,23.7],[78.925,24.1],[79.05,24.2],[79.0,24.375],[78.975,24.675],[78.925,24.7],[78.825,25.05],[78.375,25.2],[78.25,25.3],[77.875,25.3],[77.725,25.4],[77.6,25.575],[77.6,25.7],[77.45,25.725],[77.25,25.925],[77.2,26.225],[76.975,26.15],[76.7,25.975],[76.7,26.1],[76.6,26.225],[76.45,26.225],[76.325,26.425],[76.325,26.55],[76.225,26.525],[76.1,26.575],[76.0,26.725],[76.0,26.825],[75.875,26.975],[75.8,27.0],[75.8,27.35],[75.7,27.5],[75.55,27.55],[75.575,27.725],[75.725,27.9],[75.675,28.0],[75.675,28.5],[75.625,28.575],[75.65,28.9],[75.6,29.025],[75.575,29.375],[75.45,29.775],[75.45,29.95],[75.4,30.125],[75.4,30.375],[75.35,30.55],[75.35,30.9],[75.4,30.95],[75.4,31.3],[75.35,31.525],[75.55,31.725],[75.55,32.05],[75.75,32.15],[75.75,32.75],[75.675,32.875],[75.825,32.925],[75.825,33.0],[76.05,33.225],[76.275,33.225],[76.35,33.325],[76.55,33.325],[76.6,33.375],[76.65,33.375],[76.85,33.125],[76.95,33.05],[77.2,33.025]]]]}},{"type":"Feature","properties":{"name":"Hainan","name_zh":"","focus":false,"label":[109.47,19.04],"area":3.0,"color":"#5f87a3"},"geometry":{"type":"Polygon","coordinates":[[[109.76,18.348],[109.703,18.259],[109.681,18.247],[109.59,18.226],[109.521,18.219],[109.429,18.096],[108.651,18.482],[108.576,19.187],[108.649,19.246],[108.65,19.265],[108.666,19.304],[108.694,19.338],[108.791,19.418],[108.903,19.481],[109.063,19.614],[109.179,19.674],[109.277,19.761],[109.22,19.757],[109.177,19.768],[109.219,19.843],[109.263,19.883],[109.315,19.904],[109.418,19.889],[109.514,19.904],[109.584,19.97],[109.651,19.984],[109.906,19.963],[110.083,19.993],[110.172,20.054],[110.213,20.056],[110.344,20.039],[110.385,19.985],[110.391,19.986],[110.388,20.018],[110.394,20.059],[110.418,20.055],[110.527,20.005],[110.588,20.013],[110.589,20.072],[110.598,20.098],[110.652,20.138],[110.679,20.137],[110.745,20.059],[110.809,20.014],[110.889,19.992],[110.938,19.948],[110.971,19.883],[110.998,19.765],[111.014,19.655],[110.913,19.586],[110.822,19.558],[110.641,19.291],[110.603,19.207],[110.572,19.172],[110.563,19.135],[110.566,19.099],[110.519,18.97],[110.478,18.813],[110.451,18.748],[110.4,18.698],[110.334,18.673],[110.294,18.67],[110.262,18.625],[110.189,18.599],[110.156,18.57],[110.049,18.505],[110.066,18.476],[110.067,18.448],[110.02,18.416],[109.968,18.422],[109.816,18.397],[109.76,18.348]]]}},{"type":"Feature","properties":{"name":"Simhala","name_zh":"","focus":false,"label":[80.73,7.62],"area":5.3,"color":"#6f9460"},"geometry":{"type":"MultiPolygon","coordinates":[[[[79.708,8.066],[79.713,8.182],[79.75,8.294],[79.75,8.049],[79.783,8.018],[79.809,8.05],[79.818,8.145],[79.724,8.416],[79.808,8.647],[79.674,8.804],[79.705,8.93],[79.896,8.92],[80.052,9.113],[80.076,9.279],[80.117,9.346],[80.111,9.453],[80.086,9.578],[80.146,9.556],[80.123,9.636],[80.046,9.65],[79.979,9.699],[79.954,9.742],[79.967,9.793],[79.982,9.813],[80.078,9.807],[80.181,9.81],[80.253,9.796],[80.376,9.642],[80.711,9.366],[80.893,9.086],[80.91,9.025],[80.935,8.971],[80.979,8.957],[81.016,8.933],[81.198,8.662],[81.219,8.608],[81.216,8.549],[81.227,8.506],[81.275,8.484],[81.334,8.472],[81.373,8.431],[81.422,8.215],[81.422,8.148],[81.436,8.119],[81.517,8.0],[81.419,8.0],[81.445,7.928],[81.804,7.313],[81.866,7.084],[81.779,6.753],[81.599,6.448],[81.202,6.079],[80.851,5.951],[80.562,5.931],[80.341,5.969],[80.222,6.058],[80.127,6.216],[79.854,7.061],[79.834,8.0],[79.721,8.0],[79.708,8.066]],[[80.385,9.549],[80.258,9.611],[80.175,9.626],[80.344,9.473],[80.368,9.48],[80.428,9.481],[80.385,9.549]]],[[[79.97,9.631],[79.907,9.62],[79.857,9.686],[79.846,9.715],[79.859,9.734],[79.872,9.744],[79.888,9.741],[79.912,9.679],[79.97,9.631]]],[[[79.86,9.066],[79.875,9.051],[79.904,8.975],[79.821,9.027],[79.767,9.07],[79.748,9.105],[79.86,9.066]]]]}},{"type":"Feature","properties":{"name":"Parthian Empire","name_zh":"","focus":false,"label":[60.7,31.44],"area":14.1,"color":"#4f8f86"},"geometry":{"type":"Polygon","coordinates":[[[62.796,34.615],[60.0,28.265],[60.0,37.521],[60.964,37.32],[62.796,34.615]]]}},{"type":"Feature","properties":{"name":"Suren Kingdom","name_zh":"","focus":false,"label":[64.76,29.78],"area":91.4,"color":"#8a6f9e"},"geometry":{"type":"Polygon","coordinates":[[[70.625,35.575],[70.775,35.575],[71.0,35.65],[71.05,35.8],[71.125,35.85],[71.175,36.025],[71.275,36.05],[71.35,36.15],[71.45,36.15],[71.6,36.275],[71.675,36.425],[71.875,36.375],[71.95,36.5],[72.175,36.55],[72.225,36.375],[72.3,36.275],[72.3,35.825],[72.675,35.9],[72.925,35.825],[73.075,35.85],[73.1,35.7],[73.3,35.525],[73.275,35.4],[73.625,35.275],[73.675,35.075],[74.025,35.0],[74.075,35.05],[74.375,35.05],[74.45,35.125],[74.55,35.075],[74.575,34.925],[74.7,34.9],[74.825,34.775],[75.1,34.8],[75.175,34.675],[75.35,34.675],[75.475,34.55],[75.475,34.35],[75.525,34.275],[75.4,34.225],[75.225,34.225],[75.125,34.175],[74.975,33.975],[74.75,34.075],[74.65,33.925],[74.525,33.825],[74.6,33.575],[75.025,33.475],[75.0,33.275],[74.925,33.2],[74.775,33.175],[74.775,32.95],[74.55,32.925],[74.25,32.825],[74.0,32.625],[73.975,32.5],[73.475,32.5],[73.275,32.3],[73.125,32.325],[72.95,32.425],[72.625,32.425],[72.475,32.325],[72.45,32.225],[72.275,32.05],[72.275,31.875],[72.15,31.7],[72.1,31.4],[71.95,31.375],[71.85,31.275],[71.725,31.275],[71.6,31.35],[71.175,31.35],[70.925,31.475],[70.825,31.475],[70.775,31.325],[70.775,31.15],[70.825,31.05],[70.775,30.825],[70.55,30.825],[70.45,30.775],[70.0,30.775],[70.0,30.984],[67.387,28.226],[66.432,25.488],[66.3,25.494],[65.768,25.309],[64.424,25.173],[64.238,25.21],[64.059,25.401],[63.65,25.336],[63.403,25.164],[62.449,25.162],[61.813,25.053],[61.343,25.026],[60.858,25.095],[60.479,25.298],[60.0,25.322],[60.0,28.265],[62.796,34.615],[70.0,34.857],[70.0,35.525],[70.125,35.55],[70.275,35.675],[70.525,35.675],[70.625,35.575]]]}},{"type":"Feature","properties":{"name":"Kalinga","name_zh":"","focus":false,"label":[84.62,22.36],"area":31.8,"color":"#4f8f86"},"geometry":{"type":"Polygon","coordinates":[[[80.775,21.85],[81.025,22.225],[81.25,22.4],[81.3,22.325],[81.475,22.25],[81.7,22.25],[81.75,22.2],[82.025,22.25],[82.15,22.375],[82.225,22.525],[82.4,22.525],[82.7,22.675],[82.825,22.6],[83.0,22.75],[83.05,22.875],[83.25,22.875],[83.275,23.125],[83.4,23.225],[83.525,23.225],[83.4,23.425],[83.4,23.75],[83.35,23.875],[83.35,24.325],[83.325,24.6],[83.55,24.675],[83.55,24.9],[83.6,25.025],[83.6,25.475],[83.625,25.6],[83.75,25.525],[83.9,25.525],[84.125,25.75],[84.275,25.725],[84.3,25.775],[84.5,25.725],[84.525,25.875],[84.375,25.925],[84.4,26.1],[84.85,26.575],[84.925,26.575],[85.05,26.725],[85.675,27.325],[85.8,27.55],[85.95,27.575],[85.975,27.725],[86.1,27.95],[86.125,28.225],[86.35,28.25],[86.525,28.125],[86.55,28.025],[86.525,27.825],[86.575,27.8],[86.475,27.5],[86.425,27.5],[86.25,27.325],[86.275,27.15],[86.2,27.1],[86.1,26.8],[86.025,26.7],[85.975,26.5],[85.85,26.275],[85.85,26.05],[85.925,25.925],[85.925,25.55],[86.05,25.35],[86.1,25.35],[86.125,25.175],[86.075,25.125],[86.075,24.65],[86.15,24.55],[86.175,24.35],[85.95,24.275],[85.925,24.125],[85.85,24.1],[85.975,23.9],[85.975,23.675],[85.925,23.525],[86.075,23.4],[86.125,23.25],[86.325,23.2],[86.35,22.95],[86.55,22.775],[86.55,22.575],[86.475,22.5],[86.475,22.375],[86.375,22.325],[86.375,22.075],[86.3,22.0],[86.325,21.675],[86.6,21.425],[86.775,21.4],[86.9,21.275],[86.906,21.261],[86.857,21.22],[86.842,21.106],[86.896,20.966],[86.939,20.745],[86.975,20.7],[86.925,20.62],[86.836,20.534],[86.763,20.419],[86.769,20.356],[86.75,20.313],[86.634,20.248],[86.632,20.203],[86.304,19.949],[86.303,19.945],[86.279,19.919],[86.253,19.909],[86.119,19.806],[85.425,19.618],[85.226,19.508],[85.02,19.335],[84.753,19.028],[84.262,18.455],[84.145,18.349],[84.104,18.293],[84.055,18.268],[83.987,18.207],[83.684,18.083],[83.381,17.71],[83.127,17.556],[83.125,17.575],[82.9,17.8],[82.8,18.075],[82.9,18.175],[82.925,18.5],[82.9,18.7],[82.725,18.875],[82.5,19.0],[82.425,19.125],[82.325,19.175],[82.2,19.325],[81.775,19.55],[81.6,19.6],[81.35,19.575],[81.15,19.475],[80.975,19.525],[80.925,19.625],[80.525,19.65],[80.35,19.975],[80.35,20.175],[80.275,20.3],[80.275,20.525],[80.4,20.925],[80.25,21.075],[80.25,21.225],[80.175,21.325],[80.1,21.575],[80.175,21.65],[80.275,21.65],[80.4,21.725],[80.45,21.875],[80.775,21.85]]]}},{"type":"Feature","properties":{"name":"Hindu kingdoms","name_zh":"","focus":false,"label":[77.81,10.99],"area":16.7,"color":"#9a8a4a"},"geometry":{"type":"Polygon","coordinates":[[[75.75,12.55],[75.75,12.8],[75.8,12.9],[76.0,12.925],[76.1,13.0],[76.275,12.95],[76.475,12.95],[76.525,12.9],[76.875,12.95],[77.0,13.0],[77.175,13.0],[77.275,13.125],[77.4,13.15],[77.85,13.125],[77.9,13.175],[78.225,13.175],[78.5,13.15],[78.75,13.25],[78.975,13.225],[79.175,13.15],[79.425,13.15],[79.5,13.2],[79.7,13.175],[80.315,13.175],[80.313,13.104],[80.288,13.042],[80.229,12.69],[80.143,12.452],[80.038,12.296],[79.982,12.235],[79.921,12.114],[79.822,11.864],[79.771,11.69],[79.754,11.575],[79.793,11.447],[79.749,11.371],[79.721,11.341],[79.723,11.32],[79.799,11.339],[79.835,11.269],[79.849,11.197],[79.85,10.769],[79.838,10.323],[79.812,10.317],[79.789,10.25],[79.313,10.255],[79.254,10.175],[79.258,10.035],[79.089,9.808],[79.072,9.759],[78.927,9.493],[78.926,9.491],[78.937,9.435],[79.116,9.308],[79.18,9.298],[79.175,9.275],[79.175,9.258],[79.112,9.261],[78.313,8.995],[78.181,8.811],[78.135,8.499],[78.064,8.385],[78.026,8.361],[77.77,8.19],[77.72,8.173],[77.484,8.028],[77.341,8.053],[77.128,8.271],[77.066,8.316],[76.967,8.407],[76.845,8.561],[76.703,8.706],[76.676,8.773],[76.617,8.847],[76.553,8.903],[76.483,9.091],[76.472,9.161],[76.452,9.189],[76.419,9.208],[76.403,9.237],[76.325,9.452],[76.292,9.676],[76.242,9.927],[76.285,9.91],[76.343,9.827],[76.372,9.707],[76.376,9.54],[76.42,9.52],[76.438,9.528],[76.385,9.747],[76.3,9.968],[76.249,10.018],[76.223,10.024],[76.196,10.086],[76.193,10.164],[76.201,10.201],[76.123,10.327],[76.096,10.402],[75.923,10.784],[75.866,10.981],[75.651,11.423],[75.292,11.976],[75.23,12.023],[75.197,12.058],[74.946,12.565],[74.943,12.575],[75.275,12.575],[75.425,12.45],[75.675,12.375],[75.75,12.55]]]}},{"type":"Feature","properties":{"name":"Yueban","name_zh":"悦般","focus":false,"label":[72.74,45.79],"area":9.7,"color":"#a07d5a"},"geometry":{"type":"Polygon","coordinates":[[[71.5,45.1],[71.4,45.275],[71.425,45.575],[71.4,45.8],[71.45,45.825],[71.575,46.05],[71.575,46.625],[71.675,46.75],[71.825,46.85],[71.9,47.175],[72.075,47.375],[72.075,47.475],[72.325,47.525],[72.55,47.725],[72.65,47.75],[73.1,47.75],[73.175,47.825],[73.35,47.85],[73.375,47.95],[73.6,48.125],[73.65,48.225],[73.9,48.325],[74.15,48.3],[74.325,48.4],[74.4,48.5],[74.675,48.5],[74.8,48.4],[74.85,48.175],[74.85,47.95],[74.95,47.875],[74.925,47.575],[75.0,47.475],[75.0,47.1],[74.9,46.825],[74.775,46.725],[74.65,46.55],[74.55,46.25],[74.25,46.1],[74.2,45.875],[74.075,45.65],[74.05,45.525],[73.95,45.45],[73.875,45.225],[73.65,45.0],[73.475,44.95],[73.4,44.775],[73.225,44.75],[73.2,44.65],[73.05,44.55],[72.675,44.15],[72.525,44.175],[72.35,44.275],[72.15,44.275],[71.6,44.525],[71.5,44.875],[71.5,45.1]]]}},{"type":"Feature","properties":{"name":"Han Zhao","name_zh":"汉赵","focus":false,"label":[109.06,37.87],"area":35.5,"color":"#6f9460"},"geometry":{"type":"MultiPolygon","coordinates":[[[[105.875,40.6],[106.075,40.625],[106.2,40.825],[106.7,41.225],[106.975,41.275],[107.25,41.425],[107.325,41.425],[107.425,41.55],[107.65,41.55],[107.6,41.275],[107.8,41.175],[108.1,41.2],[108.15,41.05],[108.325,41.0],[108.375,41.075],[108.725,41.05],[108.825,40.925],[108.9,40.925],[109.05,41.25],[109.175,41.35],[109.35,41.425],[109.625,41.425],[109.825,41.275],[110.1,41.25],[110.325,41.175],[110.475,41.075],[110.65,41.075],[110.825,41.15],[111.025,41.125],[111.425,41.125],[111.575,41.1],[111.7,41.2],[111.875,41.2],[112.025,41.25],[112.075,41.325],[112.3,41.275],[112.475,41.275],[112.525,41.2],[112.55,41.2],[112.375,41.075],[112.375,40.7],[112.275,40.6],[112.125,40.55],[112.025,40.45],[111.975,40.3],[111.975,40.075],[112.05,39.95],[112.0,39.725],[112.075,39.675],[112.075,39.1],[112.125,38.9],[112.0,38.75],[111.85,38.675],[111.875,38.425],[111.825,38.275],[111.7,38.1],[111.625,38.075],[111.625,37.875],[111.675,37.825],[111.675,37.525],[111.825,37.475],[111.9,37.25],[111.925,36.95],[112.075,36.825],[112.075,36.65],[111.875,36.375],[111.45,35.975],[111.375,35.775],[111.375,35.65],[111.3,35.525],[111.175,35.5],[111.05,35.375],[110.875,35.3],[110.625,35.05],[110.55,35.05],[110.375,34.875],[110.375,34.8],[110.25,34.825],[110.225,35.0],[109.975,35.0],[109.85,35.075],[109.725,35.075],[109.6,34.925],[109.275,34.825],[109.0,34.8],[108.925,34.95],[108.95,35.15],[108.8,35.275],[108.55,35.3],[108.275,35.175],[108.125,35.3],[107.725,35.45],[107.7,35.4],[107.475,35.4],[107.3,35.575],[107.025,35.675],[106.85,35.7],[106.325,35.7],[106.325,35.775],[106.55,35.975],[106.575,36.075],[106.275,36.075],[106.075,36.15],[105.975,36.3],[105.675,36.3],[105.65,36.425],[105.5,36.575],[105.35,36.6],[105.375,36.85],[105.45,36.9],[105.4,37.075],[105.3,37.15],[105.3,37.475],[105.55,37.475],[105.875,37.575],[105.95,37.725],[105.975,38.35],[105.85,38.475],[105.85,38.675],[105.925,38.875],[106.0,38.925],[106.05,39.075],[106.175,39.2],[106.175,39.275],[106.025,39.55],[106.025,39.75],[105.975,39.85],[105.775,40.05],[105.675,40.3],[105.525,40.35],[105.45,40.35],[105.55,40.5],[105.775,40.525],[105.875,40.6]]],[[[110.4,34.775],[110.375,34.775],[110.375,34.8],[110.4,34.775]]]]}},{"type":"Feature","properties":{"name":"Ainu","name_zh":"","focus":false,"label":[143.26,43.52],"area":18.7,"color":"#7272a8"},"geometry":{"type":"MultiPolygon","coordinates":[[[[150.0,46.045],[150.0,45.831],[149.684,45.633],[149.442,45.589],[149.667,45.85],[149.856,45.923],[150.0,46.045]]],[[[147.762,44.938],[147.62,44.966],[147.585,44.918],[147.622,44.897],[147.548,44.812],[147.291,44.666],[147.209,44.55],[147.021,44.507],[146.948,44.408],[146.84,44.415],[146.846,44.476],[147.153,44.673],[147.111,44.793],[147.479,44.974],[147.504,45.043],[147.656,45.075],[147.763,45.189],[147.894,45.223],[147.856,45.356],[147.932,45.421],[148.0,45.273],[148.069,45.248],[148.321,45.27],[148.7,45.52],[148.856,45.474],[148.825,45.334],[148.582,45.316],[148.235,45.198],[147.877,44.974],[147.762,44.938]]],[[[146.842,43.874],[146.904,43.839],[146.682,43.707],[146.598,43.732],[146.604,43.803],[146.842,43.874]]],[[[145.94,44.128],[145.779,43.928],[145.595,43.858],[145.554,43.65],[145.437,43.716],[145.409,43.835],[145.744,44.051],[146.127,44.507],[146.344,44.421],[146.568,44.438],[146.508,44.358],[146.119,44.251],[145.94,44.128]]],[[[146.13,43.458],[146.076,43.513],[146.152,43.545],[146.226,43.525],[146.13,43.458]]],[[[141.721,42.539],[141.396,42.519],[140.929,42.255],[140.86,42.39],[140.693,42.55],[140.54,42.537],[140.349,42.432],[140.324,42.376],[140.315,42.334],[140.327,42.293],[140.417,42.201],[140.528,42.132],[140.578,42.119],[140.684,42.123],[140.734,42.116],[140.912,41.978],[141.108,41.848],[141.151,41.805],[141.109,41.779],[141.155,41.749],[140.979,41.652],[140.588,41.677],[140.268,41.324],[140.112,41.273],[140.012,41.381],[139.977,41.503],[140.002,41.551],[139.995,41.576],[140.021,41.696],[140.084,41.803],[140.106,41.902],[140.1,41.937],[140.098,41.946],[139.852,42.035],[139.777,42.112],[139.711,42.477],[139.859,42.575],[139.86,42.582],[139.891,42.649],[139.951,42.671],[140.015,42.685],[140.115,42.733],[140.224,42.796],[140.329,42.867],[140.432,42.954],[140.486,43.05],[140.407,43.154],[140.373,43.185],[140.389,43.202],[140.379,43.237],[140.392,43.303],[140.487,43.338],[140.544,43.323],[140.598,43.326],[140.736,43.237],[140.781,43.215],[140.819,43.205],[140.954,43.201],[141.138,43.18],[141.245,43.185],[141.296,43.2],[141.303,43.206],[141.301,43.72],[141.511,43.82],[141.601,43.919],[141.645,44.019],[141.661,44.264],[141.716,44.371],[141.734,44.416],[141.745,44.628],[141.566,44.969],[141.522,45.182],[141.597,45.279],[141.615,45.289],[141.653,45.349],[141.654,45.377],[141.668,45.401],[141.778,45.419],[141.829,45.439],[141.879,45.483],[141.938,45.51],[141.981,45.483],[142.0,45.459],[142.0,45.329],[143.02,44.463],[143.79,44.027],[144.613,43.842],[144.75,43.881],[145.139,44.178],[145.347,44.243],[145.059,43.785],[145.448,43.169],[144.994,42.937],[144.754,42.866],[144.59,42.859],[144.37,42.949],[144.166,42.942],[144.002,42.877],[143.508,42.42],[143.33,42.196],[143.213,41.926],[143.033,41.958],[142.0,42.466],[141.928,42.501],[141.721,42.539]]],[[[141.598,52.216],[141.811,52.628],[141.84,52.96],[141.689,53.165],[141.767,53.272],[141.828,53.276],[141.824,53.34],[141.852,53.389],[141.964,53.456],[142.0,53.464],[142.0,53.286],[142.214,53.299],[142.674,53.54],[142.863,53.34],[143.056,53.061],[143.138,52.856],[143.143,52.511],[143.033,52.312],[142.944,51.961],[142.943,51.617],[143.074,51.267],[143.34,50.885],[143.633,50.234],[144.038,49.508],[144.539,48.753],[143.598,49.233],[143.152,49.258],[142.853,49.127],[142.646,48.657],[142.489,47.901],[142.614,47.459],[142.993,46.953],[143.236,46.863],[143.444,46.571],[143.303,46.011],[143.004,46.577],[142.614,46.712],[142.513,46.699],[142.327,46.563],[142.0,46.068],[142.0,45.977],[141.963,46.012],[141.898,45.914],[141.708,46.139],[141.622,46.558],[141.909,47.073],[141.731,47.471],[141.81,47.675],[142.0,47.914],[142.036,47.959],[142.0,48.157],[141.977,48.284],[141.739,48.807],[141.921,48.943],[142.0,49.197],[142.049,49.354],[142.152,50.89],[142.112,51.219],[142.016,51.43],[142.0,51.446],[141.643,51.813],[141.598,52.216]]],[[[141.258,52.793],[141.266,52.653],[141.245,52.55],[141.166,52.47],[141.15,52.475],[141.15,52.454],[141.132,52.436],[141.15,52.404],[141.15,52.4],[141.152,52.401],[141.17,52.368],[141.33,52.271],[141.409,52.234],[141.485,52.179],[141.386,52.057],[141.373,51.968],[141.25,51.95],[141.025,52.025],[140.95,52.1],[140.9,52.275],[140.8,52.3],[140.8,52.525],[140.725,52.7],[140.85,52.75],[141.05,52.75],[141.15,52.8],[141.258,52.793]]]]}},{"type":"Feature","properties":{"name":"Paleo-Siberian hunter-gatherers","name_zh":"","focus":false,"label":[126.85,54.02],"area":222.6,"color":"#7d6b5a","nolabel":true},"geometry":{"type":"MultiPolygon","coordinates":[[[[141.374,53.293],[141.402,53.184],[141.328,53.097],[141.181,53.015],[141.112,53.033],[141.089,52.985],[141.02,52.943],[141.087,52.898],[141.256,52.84],[141.258,52.793],[141.15,52.8],[141.05,52.75],[140.85,52.75],[140.725,52.7],[140.425,52.675],[140.325,52.575],[140.325,52.475],[139.85,52.475],[139.85,52.325],[139.725,52.25],[139.675,52.15],[139.525,52.1],[138.8,52.1],[138.55,52.0],[138.375,52.0],[138.15,52.25],[138.1,52.225],[137.7,52.25],[137.7,52.45],[137.575,52.55],[137.5,52.725],[137.4,52.8],[137.15,52.775],[137.05,53.0],[137.075,53.175],[137.025,53.225],[136.7,53.2],[136.65,53.4],[136.5,53.525],[136.5,53.6],[136.375,53.65],[136.175,53.65],[136.025,53.5],[135.85,53.5],[135.85,53.4],[135.625,53.3],[135.175,53.3],[135.175,53.075],[135.1,52.925],[135.0,52.85],[134.925,52.7],[134.75,52.65],[134.75,52.5],[134.525,52.4],[134.4,52.4],[134.325,52.225],[134.225,52.2],[134.175,51.975],[133.85,52.025],[133.775,52.15],[133.6,52.15],[133.425,52.075],[133.3,52.175],[133.025,52.075],[132.925,51.975],[132.925,51.775],[132.8,51.55],[132.6,51.4],[132.325,51.375],[132.3,51.325],[131.725,51.275],[131.8,51.025],[131.6,50.925],[131.55,50.85],[131.1,50.925],[130.875,50.875],[130.725,50.675],[130.6,50.675],[130.525,50.575],[130.325,50.475],[129.75,50.45],[129.7,50.4],[129.425,50.375],[129.1,50.25],[129.0,50.15],[128.85,50.15],[128.625,50.05],[128.4,49.825],[128.2,49.75],[128.025,49.575],[127.975,49.625],[127.825,49.6],[127.7,49.75],[127.525,49.8],[127.525,50.075],[127.25,50.1],[127.15,50.05],[126.9,50.025],[126.675,50.15],[126.425,50.15],[126.325,50.325],[125.8,50.325],[125.675,50.475],[125.55,50.5],[125.4,50.625],[125.125,50.675],[125.05,50.775],[124.85,50.8],[124.525,50.975],[124.475,50.875],[124.225,50.85],[124.025,50.875],[123.85,50.825],[123.725,51.0],[123.6,51.025],[123.55,51.25],[123.2,51.175],[123.15,51.275],[122.9,51.3],[122.8,51.45],[122.65,51.375],[122.525,51.05],[122.4,50.95],[122.175,51.125],[121.85,51.175],[121.8,51.125],[121.475,51.125],[121.225,51.075],[121.15,51.15],[120.75,51.125],[120.675,51.225],[120.5,51.3],[120.45,51.375],[120.2,51.25],[120.2,51.3],[119.975,51.425],[119.875,51.325],[119.725,51.45],[119.725,51.525],[119.6,51.55],[119.5,51.725],[119.3,51.875],[119.3,52.025],[119.4,52.125],[119.35,52.425],[119.25,52.425],[119.075,52.55],[119.075,52.6],[118.9,52.6],[118.75,52.65],[118.6,52.475],[118.425,52.625],[118.425,52.95],[118.35,53.05],[118.325,53.4],[118.2,53.525],[117.95,53.6],[117.875,53.725],[117.75,53.775],[117.575,53.775],[117.6,54.025],[117.7,54.125],[117.725,54.3],[117.8,54.375],[117.85,54.65],[117.7,54.725],[117.65,54.85],[117.525,54.9],[117.525,55.05],[117.7,55.3],[117.65,55.475],[117.4,55.525],[117.25,55.475],[117.175,55.35],[116.925,55.3],[116.85,55.375],[116.725,55.35],[116.475,55.625],[116.35,55.625],[116.275,55.525],[115.975,55.5],[115.85,55.725],[115.85,55.925],[115.775,56.0],[115.968,56.0],[114.867,58.0],[140.347,58.0],[140.028,57.644],[138.866,57.124],[138.345,56.804],[137.253,56.0],[137.419,56.0],[137.384,55.975],[137.19,55.892],[137.033,55.807],[137.0,55.8],[137.0,55.79],[136.794,55.694],[136.566,55.614],[136.521,55.589],[136.369,55.521],[136.351,55.51],[136.175,55.352],[135.751,55.161],[135.541,55.114],[135.263,54.943],[135.235,54.903],[135.212,54.841],[135.258,54.731],[135.325,54.707],[135.438,54.692],[135.852,54.584],[136.238,54.614],[136.322,54.614],[136.35,54.6],[136.36,54.614],[136.58,54.614],[136.715,54.624],[136.797,54.621],[136.824,54.561],[136.82,54.452],[136.77,54.353],[136.729,54.061],[136.683,53.931],[136.719,53.804],[136.803,53.782],[136.886,53.839],[137.017,53.848],[137.04,53.862],[137.166,53.842],[137.258,54.025],[137.172,54.057],[137.096,54.129],[137.142,54.182],[137.378,54.282],[137.525,54.291],[137.666,54.283],[137.513,54.156],[137.451,54.13],[137.403,54.124],[137.339,54.101],[137.476,54.028],[137.623,53.97],[137.835,53.947],[137.786,53.903],[137.645,53.866],[137.517,53.707],[137.363,53.65],[137.35,53.65],[137.348,53.644],[137.314,53.632],[137.221,53.579],[137.254,53.546],[137.328,53.539],[137.738,53.56],[137.95,53.604],[138.253,53.726],[138.379,53.909],[138.412,53.924],[138.416,54.091],[138.715,54.088],[138.705,54.148],[138.716,54.223],[138.657,54.298],[138.696,54.32],[139.105,54.218],[139.32,54.193],[139.707,54.277],[139.796,54.256],[139.858,54.205],[140.179,54.052],[140.242,54.001],[140.347,53.813],[140.688,53.596],[141.006,53.495],[141.015,53.454],[141.05,53.434],[141.05,53.425],[141.061,53.427],[141.218,53.334],[141.374,53.293]]],[[[97.375,55.3],[97.275,55.45],[96.975,55.625],[96.85,55.725],[96.85,55.8],[96.425,55.85],[96.175,55.85],[95.925,55.9],[95.85,56.0],[96.048,56.0],[93.7,56.484],[78.362,56.41],[74.439,56.0],[74.75,56.0],[74.6,55.875],[74.275,55.875],[74.275,55.85],[73.8,55.85],[73.8,55.825],[73.3,55.825],[73.3,55.8],[72.825,55.8],[72.825,55.775],[72.5,55.775],[72.125,55.65],[71.975,55.65],[71.775,55.575],[71.6,55.55],[71.0,55.55],[70.75,55.525],[70.375,55.45],[70.0,55.425],[70.0,55.536],[65.311,55.046],[60.0,56.229],[60.0,56.559],[62.805,56.955],[65.855,58.0],[104.256,58.0],[100.182,56.0],[100.4,56.0],[100.25,55.875],[99.95,55.825],[99.875,55.675],[99.725,55.65],[99.65,55.55],[99.425,55.5],[99.375,55.275],[99.125,55.25],[99.025,55.125],[99.0,55.0],[98.825,54.95],[98.625,54.7],[98.525,54.725],[98.425,54.85],[98.2,54.85],[98.125,54.725],[97.925,54.65],[97.875,54.725],[97.75,54.725],[97.7,54.875],[97.525,55.075],[97.35,55.175],[97.375,55.3]]]]}},{"type":"Feature","properties":{"name":"Finno-Ugric taiga hunter-gatherers","name_zh":"","focus":false,"label":[62.17,57.48],"area":5.1,"color":"#5f87a3","nolabel":true},"geometry":{"type":"Polygon","coordinates":[[[60.0,56.559],[60.0,58.0],[65.855,58.0],[62.805,56.955],[60.0,56.559]]]}},{"type":"Feature","properties":{"name":"Gaya","name_zh":"","focus":false,"label":[128.08,35.19],"area":0.9,"color":"#9a8a4a"},"geometry":{"type":"MultiPolygon","coordinates":[[[[127.375,34.875],[127.7,35.25],[127.7,35.325],[127.85,35.35],[127.95,35.45],[127.95,35.625],[128.025,35.725],[128.075,35.725],[128.325,35.6],[128.45,35.375],[128.65,35.375],[128.775,35.175],[128.975,35.175],[129.1,35.25],[129.2,35.4],[129.44,35.48],[129.439,35.475],[129.346,35.363],[129.329,35.333],[129.214,35.182],[129.183,35.168],[129.136,35.112],[128.978,35.084],[128.976,35.101],[128.932,35.1],[128.919,35.089],[128.734,35.092],[128.709,35.108],[128.643,35.12],[128.511,35.101],[128.458,35.069],[128.425,35.024],[128.487,35.047],[128.445,34.838],[128.335,34.871],[128.333,34.893],[128.276,34.911],[128.211,34.914],[128.203,34.888],[128.066,34.924],[128.02,34.986],[127.816,34.949],[127.665,34.929],[127.659,34.926],[127.639,34.89],[127.663,34.843],[127.687,34.825],[127.773,34.843],[127.747,34.727],[127.64,34.616],[127.556,34.651],[127.567,34.764],[127.565,34.766],[127.562,34.771],[127.501,34.842],[127.484,34.844],[127.396,34.776],[127.39,34.743],[127.423,34.688],[127.443,34.666],[127.514,34.591],[127.389,34.471],[127.315,34.443],[127.281,34.46],[127.275,34.475],[127.325,34.525],[127.275,34.85],[127.375,34.875]]],[[[128.489,34.865],[128.586,34.932],[128.668,35.009],[128.722,35.014],[128.741,34.799],[128.647,34.737],[128.52,34.82],[128.489,34.865]]],[[[127.984,34.703],[127.942,34.766],[127.897,34.735],[127.873,34.735],[127.838,34.813],[127.832,34.875],[127.915,34.921],[127.966,34.893],[128.038,34.879],[128.066,34.806],[128.055,34.708],[127.984,34.703]]],[[[127.799,34.615],[127.788,34.584],[127.737,34.631],[127.787,34.682],[127.799,34.615]]]]}},{"type":"Feature","properties":{"name":"Koguryo","name_zh":"高句丽","focus":false,"label":[127.36,40.05],"area":10.2,"color":"#a07d5a"},"geometry":{"type":"MultiPolygon","coordinates":[[[[126.35,40.0],[126.316,40.025],[126.2,40.35],[126.2,40.475],[126.075,40.625],[126.075,40.825],[126.025,40.925],[126.175,41.125],[126.15,41.25],[126.05,41.25],[125.8,41.375],[125.65,41.6],[125.55,41.625],[125.6,41.7],[125.625,41.9],[125.575,42.025],[125.625,42.125],[125.825,42.175],[125.875,42.1],[126.4,42.25],[126.65,42.475],[126.75,42.65],[126.925,42.8],[127.175,42.85],[127.225,42.65],[127.35,42.6],[127.525,42.625],[127.625,42.75],[127.775,42.775],[127.825,42.35],[128.0,42.175],[128.025,42.025],[128.175,41.925],[128.4,41.9],[128.45,41.825],[128.675,41.8],[128.85,41.625],[129.2,41.45],[129.2,41.325],[129.325,41.125],[129.45,41.1],[129.735,40.917],[129.709,40.857],[129.503,40.784],[129.477,40.682],[129.227,40.639],[129.11,40.491],[128.945,40.428],[128.843,40.358],[128.815,40.351],[128.446,40.065],[128.236,39.969],[127.931,39.956],[127.925,39.954],[127.867,39.896],[127.604,39.796],[127.546,39.734],[127.527,39.696],[127.547,39.563],[127.549,39.461],[127.526,39.388],[127.546,39.335],[127.387,39.268],[127.395,39.208],[127.497,39.179],[127.581,39.143],[127.699,39.125],[127.718,39.116],[127.734,39.115],[127.755,39.099],[127.786,39.084],[127.83,39.041],[128.104,38.826],[128.123,38.816],[128.163,38.786],[128.249,38.745],[128.329,38.681],[128.375,38.623],[128.447,38.491],[128.375,38.45],[128.475,37.9],[128.4,37.85],[128.35,37.85],[128.35,37.825],[128.175,37.725],[128.05,37.725],[127.875,37.6],[127.575,37.575],[127.575,37.5],[127.05,37.5],[126.825,37.275],[126.782,37.275],[126.791,37.295],[126.771,37.319],[126.722,37.328],[126.734,37.364],[126.71,37.394],[126.66,37.407],[126.621,37.481],[126.653,37.485],[126.657,37.551],[126.644,37.568],[126.541,37.674],[126.518,37.664],[126.516,37.605],[126.461,37.61],[126.426,37.623],[126.393,37.608],[126.34,37.65],[126.5,37.65],[127.1,38.3],[126.9,39.6],[126.375,39.982],[126.375,40.0],[126.35,40.0]]],[[[125.909,37.511],[125.823,37.65],[126.103,37.65],[126.052,37.6],[125.909,37.511]]],[[[125.076,37.77],[124.769,37.935],[124.697,38.127],[124.691,38.129],[124.696,38.132],[124.693,38.139],[124.705,38.176],[125.2,37.65],[125.407,37.65],[125.269,37.484],[125.076,37.77]]],[[[124.74,37.947],[124.717,37.933],[124.697,37.92],[124.656,37.925],[124.625,37.945],[124.636,37.981],[124.661,37.973],[124.717,37.989],[124.745,37.981],[124.755,37.97],[124.754,37.955],[124.74,37.947]]]]}},{"type":"Feature","properties":{"name":"Paekche","name_zh":"百济","focus":false,"label":[127.32,35.93],"area":4.2,"color":"#7d6b5a"},"geometry":{"type":"MultiPolygon","coordinates":[[[[127.575,37.575],[127.875,37.6],[128.05,37.725],[128.175,37.725],[128.35,37.825],[128.075,37.5],[128.05,37.275],[127.975,37.225],[127.975,37.05],[128.025,36.975],[128.175,36.975],[128.25,36.85],[128.15,36.85],[127.95,36.65],[128.05,36.425],[128.05,36.125],[127.9,36.0],[127.9,35.9],[128.05,35.825],[128.05,35.725],[128.025,35.725],[127.95,35.625],[127.95,35.45],[127.85,35.35],[127.7,35.325],[127.7,35.25],[127.375,34.875],[127.275,34.85],[127.325,34.525],[127.275,34.475],[127.281,34.46],[127.124,34.537],[127.201,34.633],[127.197,34.607],[127.261,34.662],[127.268,34.717],[127.05,34.62],[127.031,34.607],[126.939,34.491],[126.889,34.412],[126.8,34.463],[126.796,34.495],[126.755,34.512],[126.717,34.483],[126.658,34.391],[126.7,34.396],[126.753,34.344],[126.77,34.296],[126.689,34.305],[126.646,34.351],[126.65,34.379],[126.6,34.3],[126.557,34.316],[126.531,34.314],[126.522,34.329],[126.478,34.345],[126.463,34.484],[126.288,34.59],[126.288,34.644],[126.264,34.673],[126.289,34.704],[126.289,34.742],[126.313,34.717],[126.426,34.695],[126.512,34.697],[126.476,34.724],[126.505,34.738],[126.473,34.756],[126.539,34.779],[126.593,34.824],[126.548,34.837],[126.526,34.828],[126.51,34.775],[126.375,34.785],[126.408,34.885],[126.398,34.933],[126.387,34.951],[126.318,34.932],[126.249,35.116],[126.298,35.134],[126.291,35.154],[126.361,35.217],[126.396,35.314],[126.397,35.316],[126.421,35.406],[126.457,35.447],[126.46,35.456],[126.493,35.501],[126.508,35.507],[126.523,35.524],[126.559,35.526],[126.582,35.534],[126.614,35.571],[126.579,35.584],[126.498,35.578],[126.474,35.635],[126.488,35.642],[126.488,35.647],[126.535,35.666],[126.545,35.672],[126.602,35.714],[126.717,35.769],[126.753,35.872],[126.726,35.893],[126.615,35.89],[126.631,35.967],[126.664,35.974],[126.664,35.975],[126.683,36.001],[126.544,36.136],[126.464,36.574],[126.507,36.586],[126.488,36.694],[126.433,36.678],[126.389,36.651],[126.322,36.667],[126.293,36.581],[126.278,36.678],[126.231,36.689],[126.222,36.69],[126.186,36.67],[126.123,36.709],[126.184,36.878],[126.304,36.962],[126.302,36.926],[126.352,36.958],[126.358,36.959],[126.334,36.985],[126.429,37.004],[126.438,36.975],[126.487,37.007],[126.509,37.01],[126.517,37.052],[126.561,37.017],[126.578,37.02],[126.671,36.969],[126.781,36.963],[126.787,36.944],[126.839,36.846],[126.872,36.824],[126.879,36.862],[126.958,36.906],[126.969,36.926],[126.908,36.919],[126.755,37.057],[126.776,37.123],[126.783,37.127],[126.778,37.147],[126.694,37.121],[126.658,37.248],[126.763,37.231],[126.782,37.275],[126.825,37.275],[127.05,37.5],[127.575,37.5],[127.575,37.575]]],[[[128.35,37.85],[128.375,37.85],[128.35,37.825],[128.35,37.85]]],[[[126.319,36.613],[126.387,36.571],[126.418,36.493],[126.404,36.428],[126.338,36.471],[126.319,36.613]]],[[[126.134,34.39],[126.109,34.399],[126.123,34.444],[126.227,34.533],[126.247,34.563],[126.344,34.545],[126.38,34.498],[126.335,34.426],[126.234,34.371],[126.17,34.355],[126.134,34.39]]],[[[126.078,34.915],[126.169,34.83],[126.172,34.731],[126.159,34.707],[126.115,34.714],[126.071,34.783],[126.052,34.838],[126.008,34.867],[126.078,34.915]]]]}},{"type":"Feature","properties":{"name":"Silla","name_zh":"新罗","focus":false,"label":[128.66,36.51],"area":3.4,"color":"#5f87a3"},"geometry":{"type":"Polygon","coordinates":[[[127.9,36.0],[128.05,36.125],[128.05,36.425],[127.95,36.65],[128.15,36.85],[128.25,36.85],[128.175,36.975],[128.025,36.975],[127.975,37.05],[127.975,37.225],[128.05,37.275],[128.075,37.5],[128.35,37.825],[128.375,37.85],[128.4,37.85],[128.475,37.9],[128.375,38.45],[128.447,38.491],[128.619,38.176],[128.721,38.05],[129.049,37.685],[129.143,37.547],[129.335,37.275],[129.342,37.257],[129.433,37.058],[129.423,36.987],[129.426,36.926],[129.439,36.874],[129.474,36.774],[129.469,36.76],[129.473,36.742],[129.433,36.637],[129.445,36.471],[129.435,36.425],[129.438,36.4],[129.421,36.374],[129.393,36.323],[129.391,36.202],[129.402,36.138],[129.404,36.052],[129.426,36.019],[129.458,36.006],[129.51,36.038],[129.512,36.038],[129.557,36.078],[129.569,36.05],[129.573,36.051],[129.572,36.043],[129.588,36.007],[129.44,35.48],[129.2,35.4],[129.1,35.25],[128.975,35.175],[128.775,35.175],[128.65,35.375],[128.45,35.375],[128.325,35.6],[128.075,35.725],[128.05,35.725],[128.05,35.825],[127.9,35.9],[127.9,36.0]]]}},{"type":"Feature","properties":{"name":"Xianbei","name_zh":"鲜卑","focus":false,"label":[106.25,46.0],"area":282.9,"approx":true,"color":"#a3727a"},"geometry":{"type":"Polygon","coordinates":[[[123.525,43.075],[123.15,43.075],[122.9,43.125],[122.55,42.975],[122.375,43.0],[121.825,43.0],[121.65,42.925],[121.5,42.725],[121.375,42.65],[121.025,42.6],[120.8,42.625],[120.575,42.475],[120.55,42.375],[120.45,42.3],[120.35,42.125],[119.95,42.05],[119.825,41.9],[119.675,41.9],[119.55,42.025],[118.975,42.05],[118.825,41.875],[118.65,41.725],[118.45,41.675],[118.35,41.775],[118.3,42.05],[118.1,42.05],[118.0,42.25],[117.825,42.275],[117.725,42.375],[117.675,42.575],[117.525,42.575],[117.375,42.4],[117.2,42.3],[117.0,42.275],[116.9,42.2],[116.875,42.075],[116.775,41.95],[116.5,41.975],[116.2,41.85],[116.15,41.675],[116.025,41.525],[115.975,41.575],[115.575,41.575],[115.45,41.475],[115.35,41.325],[115.2,41.4],[115.0,41.4],[114.85,41.5],[114.575,41.5],[114.4,41.425],[114.325,41.525],[114.075,41.575],[113.9,41.725],[113.575,41.725],[113.525,41.675],[113.325,41.675],[113.25,41.575],[113.1,41.5],[112.975,41.35],[112.875,41.35],[112.675,41.2],[112.525,41.2],[112.475,41.275],[112.3,41.275],[112.075,41.325],[112.025,41.25],[111.875,41.2],[111.7,41.2],[111.575,41.1],[111.425,41.125],[111.025,41.125],[110.825,41.15],[110.65,41.075],[110.475,41.075],[110.325,41.175],[110.1,41.25],[109.825,41.275],[109.625,41.425],[109.35,41.425],[109.175,41.35],[109.05,41.25],[108.9,40.925],[108.825,40.925],[108.725,41.05],[108.375,41.075],[108.325,41.0],[108.15,41.05],[108.1,41.2],[107.8,41.175],[107.6,41.275],[107.65,41.55],[107.425,41.55],[107.325,41.425],[107.25,41.425],[106.975,41.275],[106.7,41.225],[106.2,40.825],[106.075,40.625],[105.875,40.6],[105.775,40.525],[105.55,40.5],[105.45,40.35],[105.425,40.35],[105.35,40.3],[105.175,40.3],[105.075,40.25],[104.8,40.225],[104.7,40.35],[104.5,40.475],[104.275,40.55],[104.325,40.7],[104.3,40.85],[104.2,40.85],[103.9,41.1],[103.775,41.1],[103.725,41.2],[103.625,41.225],[103.575,41.325],[102.95,41.55],[102.7,41.725],[102.625,41.825],[102.15,41.875],[101.925,42.025],[101.875,42.125],[101.725,42.175],[101.525,42.375],[101.425,42.375],[101.05,41.975],[100.9,41.9],[100.7,41.675],[100.45,41.6],[100.35,41.525],[100.1,41.45],[99.975,41.375],[99.825,41.175],[99.825,41.1],[99.575,41.125],[99.5,41.1],[99.55,41.275],[99.55,41.475],[99.275,41.8],[99.25,41.925],[98.925,42.05],[98.825,42.025],[98.325,42.025],[98.275,42.125],[98.275,42.375],[98.075,42.575],[98.075,42.675],[97.925,42.775],[97.7,42.7],[97.575,42.55],[97.375,42.475],[97.275,42.35],[97.25,42.225],[97.175,42.175],[96.975,42.175],[96.675,42.025],[96.625,42.025],[96.55,42.325],[96.375,42.5],[96.175,42.75],[96.0,42.825],[95.85,43.0],[95.65,43.025],[95.45,42.95],[95.0,42.95],[94.825,43.025],[94.625,43.025],[94.2,43.175],[93.95,43.5],[93.775,43.625],[93.675,43.625],[93.625,43.5],[93.525,43.45],[92.95,43.5],[92.55,43.5],[92.25,43.625],[92.15,43.75],[91.875,43.8],[91.75,43.875],[91.625,43.875],[91.5,43.75],[91.325,43.7],[91.175,43.55],[90.725,43.55],[90.625,43.5],[90.075,43.5],[89.975,43.45],[89.6,43.425],[89.475,43.475],[89.525,43.525],[89.55,43.825],[89.55,44.15],[89.475,44.275],[89.35,44.775],[89.3,44.85],[89.3,45.05],[88.975,45.225],[88.775,45.275],[88.725,45.4],[88.85,45.675],[88.925,45.775],[88.975,45.975],[89.2,46.15],[89.275,46.275],[89.35,46.55],[89.4,46.575],[89.475,46.8],[89.625,46.95],[89.65,47.125],[89.925,47.225],[90.1,47.4],[90.3,47.45],[90.325,47.625],[90.625,47.725],[90.725,47.875],[90.875,47.95],[90.825,48.175],[90.625,48.35],[90.75,48.5],[90.775,48.625],[91.025,48.625],[91.15,48.7],[91.35,48.7],[91.475,48.825],[91.825,48.775],[91.825,49.1],[91.875,49.325],[91.775,49.425],[91.7,49.6],[91.475,49.625],[91.6,49.825],[91.8,49.85],[92.1,50.0],[92.25,50.0],[92.5,50.125],[93.625,50.125],[93.775,50.45],[93.8,50.8],[94.2,50.875],[94.45,50.85],[94.7,50.75],[95.025,50.7],[95.05,50.525],[95.225,50.45],[95.475,50.475],[95.55,50.55],[96.05,50.5],[96.175,50.425],[96.55,50.45],[96.65,50.35],[97.125,50.325],[97.225,50.375],[97.225,50.6],[97.3,50.725],[97.3,50.85],[97.375,50.975],[97.575,51.0],[97.725,51.175],[98.05,51.0],[98.375,51.075],[98.525,50.975],[98.6,51.1],[98.8,51.225],[98.725,51.475],[98.825,51.475],[98.85,51.625],[98.925,51.65],[98.925,51.775],[99.05,51.85],[99.225,52.075],[99.325,52.025],[99.5,52.05],[99.875,52.05],[100.225,52.225],[100.425,52.0],[100.65,52.05],[100.85,52.025],[100.975,51.925],[101.375,51.925],[101.6,51.9],[101.6,51.425],[101.8,51.425],[102.15,51.3],[102.15,51.2],[102.475,51.125],[102.525,51.075],[102.825,51.075],[102.925,51.125],[103.125,51.1],[103.475,51.1],[103.85,51.125],[103.975,50.9],[104.075,50.8],[104.275,50.85],[104.375,50.925],[104.55,50.925],[104.85,51.075],[105.1,51.075],[105.225,51.225],[105.375,51.3],[105.55,51.3],[105.725,51.4],[106.0,51.4],[106.225,51.35],[106.375,51.525],[106.6,51.25],[106.75,51.2],[106.875,51.3],[107.075,51.3],[107.125,51.225],[107.35,51.175],[107.4,51.2],[107.675,50.9],[107.9,50.9],[107.975,50.975],[108.175,51.025],[108.4,51.025],[108.5,51.125],[108.675,51.15],[108.775,51.05],[109.15,51.075],[109.25,50.975],[109.575,50.975],[109.75,51.05],[109.825,50.925],[109.85,50.775],[110.0,50.775],[110.225,50.7],[110.6,50.7],[110.675,50.675],[110.825,50.35],[111.0,50.35],[111.15,50.25],[111.175,50.35],[111.35,50.375],[111.475,50.475],[111.475,50.575],[111.85,50.6],[112.0,50.5],[112.3,50.475],[112.35,50.775],[112.775,50.775],[112.975,50.8],[113.2,50.75],[113.3,50.65],[113.425,50.625],[113.5,50.525],[113.65,50.55],[113.7,50.625],[113.925,50.7],[114.025,50.675],[114.075,50.5],[114.35,50.525],[115.0,50.525],[115.1,50.575],[115.625,50.575],[115.825,50.55],[116.1,50.475],[116.2,50.525],[116.3,50.425],[116.525,50.425],[116.675,50.275],[116.925,50.35],[116.95,50.425],[117.15,50.25],[117.175,50.15],[117.4,50.15],[117.525,50.225],[117.825,50.225],[117.9,50.15],[118.1,50.15],[118.225,50.0],[118.4,50.05],[118.575,50.025],[118.625,49.95],[118.8,49.925],[118.8,49.75],[118.9,49.6],[118.875,49.25],[118.975,49.2],[119.35,49.275],[119.75,49.275],[119.775,49.175],[120.075,48.875],[120.1,48.725],[120.275,48.65],[120.425,48.65],[120.475,48.55],[120.725,48.525],[120.95,48.325],[121.1,48.25],[121.15,48.3],[121.475,48.0],[121.525,47.9],[121.5,47.775],[121.6,47.725],[121.675,47.575],[122.0,47.575],[122.175,47.475],[122.2,47.4],[122.7,47.275],[122.8,47.125],[122.85,46.95],[122.975,46.775],[123.35,46.45],[123.5,46.025],[123.625,45.975],[123.675,45.8],[123.8,45.725],[123.95,45.725],[124.025,45.425],[124.125,45.35],[124.125,45.15],[124.2,45.025],[124.325,44.675],[124.375,44.65],[124.3,44.225],[124.125,43.95],[124.125,43.275],[124.05,43.025],[124.0,42.975],[123.925,42.725],[123.875,42.7],[123.725,42.6],[123.6,42.65],[123.6,42.9],[123.525,43.075]]]}},{"type":"Feature","properties":{"name":"Jin","name_zh":"西晋","focus":true,"label":[111.48,30.6],"area":379.6},"geometry":{"type":"MultiPolygon","coordinates":[[[[107.044,20.837],[107.064,20.817],[107.064,20.8],[107.042,20.761],[107.031,20.747],[106.99,20.743],[106.911,20.824],[106.953,20.867],[107.044,20.837]]],[[[107.521,20.927],[107.466,20.901],[107.399,20.903],[107.479,20.952],[107.519,21.013],[107.551,21.034],[107.551,20.981],[107.521,20.927]]],[[[110.34,20.998],[110.281,21.001],[110.265,21.025],[110.31,21.075],[110.385,21.093],[110.422,21.059],[110.522,21.083],[110.54,21.039],[110.539,21.018],[110.504,20.968],[110.422,21.007],[110.34,20.998]]],[[[112.559,21.675],[112.648,21.71],[112.644,21.64],[112.546,21.619],[112.525,21.623],[112.559,21.675]]],[[[112.839,21.765],[112.863,21.753],[112.813,21.712],[112.801,21.695],[112.79,21.602],[112.771,21.582],[112.742,21.618],[112.733,21.67],[112.713,21.698],[112.761,21.733],[112.782,21.772],[112.839,21.765]]],[[[113.998,22.21],[113.877,22.21],[113.852,22.22],[113.839,22.242],[113.882,22.28],[114.044,22.333],[114.003,22.278],[113.998,22.21]]],[[[98.075,42.675],[98.075,42.575],[98.275,42.375],[98.275,42.125],[98.325,42.025],[98.825,42.025],[98.925,42.05],[99.25,41.925],[99.275,41.8],[99.55,41.475],[99.55,41.275],[99.5,41.1],[99.575,41.125],[99.825,41.1],[99.825,41.175],[99.975,41.375],[100.1,41.45],[100.35,41.525],[100.45,41.6],[100.7,41.675],[100.9,41.9],[101.05,41.975],[101.425,42.375],[101.525,42.375],[101.725,42.175],[101.875,42.125],[101.925,42.025],[102.15,41.875],[102.625,41.825],[102.7,41.725],[102.95,41.55],[103.575,41.325],[103.625,41.225],[103.725,41.2],[103.775,41.1],[103.9,41.1],[104.2,40.85],[104.3,40.85],[104.325,40.7],[104.275,40.55],[104.5,40.475],[104.7,40.35],[104.8,40.225],[105.075,40.25],[105.175,40.3],[105.35,40.3],[105.425,40.35],[105.525,40.35],[105.675,40.3],[105.775,40.05],[105.975,39.85],[106.025,39.75],[106.025,39.55],[106.175,39.275],[106.175,39.2],[106.05,39.075],[106.0,38.925],[105.925,38.875],[105.85,38.675],[105.85,38.475],[105.975,38.35],[105.95,37.725],[105.875,37.575],[105.55,37.475],[105.3,37.475],[105.3,37.15],[105.4,37.075],[105.45,36.9],[105.375,36.85],[105.35,36.6],[105.5,36.575],[105.65,36.425],[105.675,36.3],[105.975,36.3],[106.075,36.15],[106.275,36.075],[106.575,36.075],[106.55,35.975],[106.325,35.775],[106.325,35.7],[106.85,35.7],[107.025,35.675],[107.3,35.575],[107.475,35.4],[107.7,35.4],[107.725,35.45],[108.125,35.3],[108.275,35.175],[108.55,35.3],[108.8,35.275],[108.95,35.15],[108.925,34.95],[109.0,34.8],[109.275,34.825],[109.6,34.925],[109.725,35.075],[109.85,35.075],[109.975,35.0],[110.225,35.0],[110.25,34.825],[110.375,34.8],[110.375,34.875],[110.55,35.05],[110.625,35.05],[110.875,35.3],[111.05,35.375],[111.175,35.5],[111.3,35.525],[111.375,35.65],[111.375,35.775],[111.45,35.975],[111.875,36.375],[112.075,36.65],[112.075,36.825],[111.925,36.95],[111.9,37.25],[111.825,37.475],[111.675,37.525],[111.675,37.825],[111.625,37.875],[111.625,38.075],[111.7,38.1],[111.825,38.275],[111.875,38.425],[111.85,38.675],[112.0,38.75],[112.125,38.9],[112.075,39.1],[112.075,39.675],[112.0,39.725],[112.05,39.95],[111.975,40.075],[111.975,40.3],[112.025,40.45],[112.125,40.55],[112.275,40.6],[112.375,40.7],[112.375,41.075],[112.55,41.2],[112.675,41.2],[112.875,41.35],[112.975,41.35],[113.1,41.5],[113.25,41.575],[113.325,41.675],[113.525,41.675],[113.575,41.725],[113.9,41.725],[114.075,41.575],[114.325,41.525],[114.4,41.425],[114.575,41.5],[114.85,41.5],[115.0,41.4],[115.2,41.4],[115.35,41.325],[115.45,41.475],[115.575,41.575],[115.975,41.575],[116.025,41.525],[116.15,41.675],[116.2,41.85],[116.5,41.975],[116.775,41.95],[116.875,42.075],[116.9,42.2],[117.0,42.275],[117.2,42.3],[117.375,42.4],[117.525,42.575],[117.675,42.575],[117.725,42.375],[117.825,42.275],[118.0,42.25],[118.1,42.05],[118.3,42.05],[118.35,41.775],[118.45,41.675],[118.65,41.725],[118.825,41.875],[118.975,42.05],[119.55,42.025],[119.675,41.9],[119.825,41.9],[119.95,42.05],[120.35,42.125],[120.45,42.3],[120.55,42.375],[120.575,42.475],[120.8,42.625],[121.025,42.6],[121.375,42.65],[121.5,42.725],[121.65,42.925],[121.825,43.0],[122.375,43.0],[122.55,42.975],[122.9,43.125],[123.15,43.075],[123.525,43.075],[123.6,42.9],[123.6,42.65],[123.725,42.6],[123.875,42.7],[124.0,42.65],[124.25,42.65],[124.35,42.45],[124.625,42.45],[124.85,42.375],[124.95,42.475],[125.1,42.475],[125.25,42.325],[125.275,42.2],[125.35,42.15],[125.55,42.175],[125.625,42.125],[125.575,42.025],[125.625,41.9],[125.6,41.7],[125.55,41.625],[125.65,41.6],[125.8,41.375],[126.05,41.25],[126.15,41.25],[126.175,41.125],[126.025,40.925],[126.075,40.825],[126.075,40.625],[126.2,40.475],[126.2,40.35],[126.316,40.025],[126.35,40.0],[126.375,40.0],[126.375,39.982],[126.9,39.6],[127.1,38.3],[126.5,37.65],[126.34,37.65],[126.103,37.65],[125.823,37.65],[125.407,37.65],[125.2,37.65],[124.705,38.176],[124.4,38.5],[124.317,39.661],[124.208,39.738],[124.127,39.852],[124.106,39.841],[123.983,39.834],[123.916,39.807],[123.244,39.704],[123.227,39.687],[123.062,39.676],[123.039,39.672],[123.02,39.664],[122.961,39.62],[122.883,39.608],[122.634,39.505],[122.335,39.366],[122.225,39.267],[122.121,39.152],[122.048,39.094],[121.982,39.053],[121.923,39.037],[121.864,38.996],[121.805,38.991],[121.745,39.01],[121.677,39.003],[121.633,38.955],[121.67,38.892],[121.65,38.865],[121.517,38.831],[121.337,38.81],[121.231,38.763],[121.207,38.744],[121.164,38.732],[121.152,38.753],[121.065,38.75],[121.116,38.852],[121.107,38.921],[121.188,38.947],[121.225,38.953],[121.66,39.331],[121.476,39.375],[121.418,39.376],[121.282,39.349],[121.213,39.483],[121.239,39.553],[121.478,39.749],[121.474,39.755],[121.517,39.845],[121.659,39.898],[121.668,39.905],[121.788,40.078],[122.107,40.353],[122.082,40.488],[121.753,40.736],[121.426,40.864],[121.103,40.853],[121.086,40.842],[121.003,40.749],[120.922,40.683],[120.841,40.649],[120.771,40.589],[120.479,40.231],[120.369,40.204],[120.292,40.172],[120.272,40.151],[120.112,40.081],[120.057,40.074],[119.85,39.987],[119.591,39.903],[119.391,39.752],[119.322,39.662],[119.261,39.561],[119.225,39.408],[119.131,39.314],[119.075,39.3],[119.081,39.264],[119.04,39.222],[118.977,39.183],[118.912,39.166],[118.826,39.172],[118.752,39.16],[118.691,39.168],[118.61,39.171],[118.472,39.118],[118.468,39.117],[118.274,38.999],[118.107,39.207],[118.041,39.227],[117.866,39.191],[117.785,39.134],[117.617,38.853],[117.554,38.691],[117.558,38.625],[117.656,38.424],[117.767,38.312],[118.015,38.183],[118.543,38.095],[118.667,38.126],[118.8,38.127],[118.909,38.061],[118.95,38.0],[118.967,38.0],[119.028,37.904],[119.036,37.809],[119.038,37.777],[119.07,37.749],[119.089,37.701],[119.033,37.661],[118.991,37.641],[118.955,37.494],[118.954,37.4],[118.9,37.4],[118.95,37.225],[119.026,37.259],[119.112,37.201],[119.175,37.179],[119.175,37.125],[119.3,37.075],[119.31,37.136],[119.45,37.125],[119.637,37.143],[119.881,37.311],[119.883,37.351],[120.004,37.415],[120.169,37.576],[120.311,37.623],[120.287,37.656],[120.257,37.679],[120.285,37.692],[120.37,37.701],[120.75,37.834],[121.049,37.725],[121.22,37.6],[121.388,37.579],[121.505,37.515],[121.64,37.46],[121.816,37.457],[121.965,37.445],[122.01,37.496],[122.057,37.529],[122.11,37.522],[122.169,37.456],[122.338,37.405],[122.493,37.408],[122.602,37.426],[122.667,37.403],[122.573,37.318],[122.587,37.181],[122.516,37.138],[122.447,37.068],[122.487,37.022],[122.523,37.003],[122.52,36.947],[122.457,36.915],[122.341,36.832],[122.274,36.834],[122.266,36.838],[122.255,36.733],[121.846,36.86],[121.682,36.842],[121.67,36.836],[121.413,36.738],[121.144,36.66],[121.054,36.611],[120.99,36.598],[120.944,36.613],[120.855,36.584],[120.839,36.574],[120.883,36.539],[120.905,36.485],[120.896,36.444],[120.847,36.426],[120.776,36.456],[120.712,36.413],[120.682,36.341],[120.681,36.168],[120.638,36.13],[120.519,36.109],[120.509,36.104],[120.504,36.055],[120.281,35.989],[120.285,35.984],[120.219,35.935],[120.055,35.861],[120.027,35.799],[119.979,35.74],[119.912,35.693],[119.866,35.644],[119.811,35.618],[119.72,35.589],[119.608,35.47],[119.526,35.359],[119.43,35.301],[119.353,35.114],[119.216,35.012],[119.165,34.849],[119.201,34.748],[119.351,34.749],[119.427,34.714],[119.583,34.582],[119.725,34.517],[119.725,34.375],[119.9,34.4],[119.95,34.3],[120.075,34.35],[120.084,34.386],[120.201,34.326],[120.267,34.274],[120.291,34.229],[120.275,34.225],[120.275,34.075],[120.36,34.058],[120.426,33.866],[120.5,33.716],[120.505,33.638],[120.571,33.55],[120.55,33.525],[120.4,33.525],[120.5,33.375],[120.65,33.35],[120.669,33.376],[120.734,33.237],[120.871,33.017],[120.897,32.843],[120.853,32.764],[120.853,32.661],[120.99,32.567],[121.293,32.457],[121.342,32.425],[121.401,32.372],[121.404,32.206],[121.451,32.153],[121.491,32.121],[121.674,32.051],[121.751,31.993],[121.832,31.9],[121.856,31.816],[121.866,31.704],[121.764,31.7],[121.681,31.712],[121.632,31.734],[121.645,31.688],[121.624,31.62],[121.808,31.552],[121.844,31.526],[121.863,31.492],[121.78,31.464],[121.52,31.55],[121.499,31.56],[121.347,31.489],[121.351,31.485],[121.661,31.32],[121.786,31.163],[121.834,31.062],[121.878,30.917],[121.769,30.87],[121.675,30.864],[121.635,30.858],[121.631,30.792],[121.568,30.71],[121.328,30.69],[121.185,30.643],[120.998,30.558],[120.938,30.47],[120.897,30.393],[120.821,30.355],[120.672,30.383],[120.608,30.346],[120.271,30.261],[120.353,30.247],[120.495,30.303],[120.633,30.133],[120.774,30.147],[120.862,30.187],[120.977,30.201],[121.159,30.302],[121.258,30.304],[121.341,30.282],[121.433,30.227],[121.678,29.979],[121.812,29.952],[121.944,29.894],[122.017,29.888],[122.083,29.87],[121.906,29.78],[121.677,29.584],[121.575,29.537],[121.506,29.485],[121.69,29.511],[121.822,29.605],[121.888,29.628],[121.941,29.606],[121.968,29.491],[121.918,29.135],[121.854,29.129],[121.791,29.226],[121.717,29.256],[121.656,29.236],[121.612,29.236],[121.549,29.097],[121.665,29.011],[121.68,28.953],[121.641,28.916],[121.54,28.932],[121.663,28.851],[121.63,28.768],[121.59,28.735],[121.519,28.714],[121.475,28.641],[121.538,28.521],[121.602,28.367],[121.61,28.292],[121.51,28.324],[121.355,28.23],[121.279,28.223],[121.259,28.182],[121.24,28.17],[121.251,28.145],[121.251,28.086],[121.164,28.063],[121.132,28.063],[121.134,28.135],[121.144,28.145],[121.065,28.22],[121.035,28.157],[120.959,28.037],[120.892,28.004],[120.815,28.013],[120.782,27.967],[120.833,27.938],[120.833,27.891],[120.685,27.745],[120.661,27.688],[120.665,27.639],[120.588,27.581],[120.629,27.482],[120.608,27.412],[120.54,27.318],[120.469,27.256],[120.385,27.156],[120.279,27.097],[120.139,26.886],[120.097,26.781],[120.087,26.672],[120.043,26.634],[119.968,26.586],[119.882,26.61],[119.879,26.683],[119.842,26.689],[119.836,26.705],[119.613,26.693],[119.624,26.676],[119.638,26.621],[119.726,26.609],[119.785,26.547],[119.831,26.45],[119.84,26.414],[119.876,26.371],[119.881,26.334],[119.797,26.3],[119.693,26.236],[119.567,26.127],[119.463,26.055],[119.445,26.055],[119.436,26.038],[119.444,25.972],[119.501,26.009],[119.619,26.004],[119.648,25.919],[119.617,25.823],[119.553,25.699],[119.539,25.591],[119.619,25.437],[119.622,25.391],[119.593,25.368],[119.499,25.409],[119.422,25.46],[119.344,25.446],[119.263,25.468],[119.18,25.45],[119.146,25.414],[119.169,25.356],[119.244,25.307],[119.286,25.232],[119.236,25.206],[119.025,25.223],[118.986,25.212],[118.927,25.089],[118.956,25.005],[118.909,24.929],[118.844,24.916],[118.812,24.849],[118.693,24.781],[118.719,24.746],[118.657,24.621],[118.56,24.58],[118.452,24.595],[118.361,24.486],[118.407,24.522],[118.451,24.456],[118.433,24.414],[118.295,24.436],[118.287,24.477],[118.328,24.471],[118.179,24.504],[118.183,24.496],[118.15,24.436],[118.091,24.446],[118.089,24.489],[118.077,24.501],[118.086,24.525],[118.012,24.541],[118.006,24.482],[117.935,24.474],[117.897,24.48],[117.845,24.475],[117.843,24.472],[117.848,24.432],[117.879,24.396],[118.024,24.38],[118.051,24.327],[118.056,24.246],[117.904,24.106],[117.839,24.012],[117.807,24.013],[117.647,23.884],[117.628,23.837],[117.601,23.848],[117.462,23.736],[117.417,23.621],[117.368,23.589],[117.347,23.636],[117.339,23.67],[117.19,23.625],[117.148,23.599],[117.083,23.579],[117.071,23.589],[116.962,23.556],[116.867,23.477],[116.861,23.453],[116.76,23.383],[116.745,23.376],[116.709,23.346],[116.672,23.332],[116.682,23.327],[116.699,23.278],[116.669,23.228],[116.586,23.218],[116.538,23.18],[116.52,23.007],[116.471,22.946],[116.365,22.942],[116.34,22.913],[116.012,22.86],[115.852,22.802],[115.836,22.805],[115.706,22.638],[115.464,22.719],[115.383,22.719],[115.301,22.769],[115.185,22.745],[115.043,22.599],[114.847,22.51],[114.558,22.464],[114.552,22.529],[114.496,22.527],[114.42,22.583],[114.341,22.593],[114.266,22.541],[114.291,22.499],[114.285,22.458],[114.325,22.437],[114.335,22.396],[114.291,22.374],[114.288,22.325],[114.268,22.296],[114.139,22.348],[114.033,22.376],[113.937,22.365],[113.903,22.396],[113.896,22.428],[114.007,22.484],[114.015,22.512],[113.949,22.527],[113.845,22.463],[113.716,22.482],[113.462,22.773],[113.444,22.747],[113.45,22.726],[113.485,22.692],[113.499,22.672],[113.475,22.575],[113.549,22.6],[113.553,22.594],[113.551,22.404],[113.589,22.35],[113.576,22.297],[113.548,22.223],[113.499,22.202],[113.416,22.178],[113.377,22.168],[113.377,22.163],[113.283,22.03],[113.096,21.979],[112.994,22.016],[112.984,21.938],[112.954,21.907],[112.904,21.881],[112.839,21.925],[112.815,21.826],[112.749,21.756],[112.039,21.659],[111.885,21.73],[111.873,21.717],[111.825,21.71],[111.776,21.719],[111.712,21.655],[111.682,21.608],[111.603,21.559],[111.596,21.558],[111.536,21.493],[111.434,21.461],[111.085,21.479],[111.003,21.454],[110.997,21.43],[110.878,21.396],[110.784,21.388],[110.766,21.382],[110.652,21.279],[110.567,21.214],[110.504,21.207],[110.458,21.231],[110.454,21.247],[110.399,21.256],[110.397,21.248],[110.375,21.172],[110.331,21.131],[110.194,21.038],[110.154,20.945],[110.18,20.859],[110.365,20.838],[110.388,20.791],[110.371,20.752],[110.326,20.72],[110.313,20.672],[110.512,20.518],[110.518,20.46],[110.487,20.427],[110.45,20.355],[110.345,20.295],[110.123,20.264],[110.068,20.273],[109.928,20.244],[109.711,20.568],[109.602,20.879],[109.608,21.057],[109.786,21.406],[109.779,21.482],[109.537,21.587],[109.544,21.538],[109.436,21.479],[109.347,21.454],[109.336,21.453],[109.321,21.431],[109.117,21.399],[108.813,21.493],[108.554,21.823],[108.485,21.793],[108.493,21.739],[108.526,21.671],[108.502,21.633],[108.444,21.607],[108.42,21.636],[108.387,21.53],[108.265,21.473],[107.9,21.479],[107.517,21.246],[107.563,21.22],[107.603,21.217],[107.459,21.092],[107.438,21.092],[107.465,20.976],[107.374,20.88],[106.815,20.905],[106.855,20.858],[106.866,20.816],[106.854,20.796],[106.803,20.844],[106.776,20.86],[106.746,20.815],[106.771,20.638],[106.532,20.315],[106.518,20.289],[106.507,20.281],[106.38,20.11],[105.964,19.88],[105.935,19.837],[105.814,19.587],[105.812,19.467],[105.785,19.379],[105.791,19.294],[105.716,19.128],[105.639,19.057],[105.622,18.966],[105.732,18.779],[105.744,18.746],[105.808,18.646],[105.839,18.574],[105.888,18.502],[105.949,18.438],[105.85,18.375],[105.5,18.275],[105.4,18.1],[105.25,18.175],[105.075,18.35],[105.0,18.55],[104.85,18.65],[104.725,18.65],[104.625,18.85],[104.5,19.0],[104.4,19.025],[104.325,19.125],[104.075,19.175],[104.0,19.25],[103.675,19.25],[103.6,19.475],[103.775,19.575],[103.75,19.7],[103.625,19.75],[103.45,19.95],[103.425,20.15],[103.225,20.275],[103.175,20.575],[102.975,20.725],[102.95,20.85],[103.025,20.875],[103.025,21.0],[102.9,21.2],[102.75,21.3],[102.75,21.4],[102.65,21.525],[102.675,21.8],[102.575,21.875],[102.55,22.025],[102.65,22.025],[102.85,22.2],[102.725,22.4],[102.775,22.625],[102.625,22.65],[102.5,22.775],[102.55,22.925],[102.375,23.05],[102.3,23.05],[102.225,23.2],[102.05,23.25],[102.05,23.325],[101.9,23.425],[101.75,23.65],[101.65,23.725],[101.575,23.925],[101.5,23.95],[101.35,24.15],[101.275,24.325],[101.025,24.55],[100.975,24.7],[100.8,24.85],[100.4,24.85],[100.3,24.925],[100.0,24.9],[99.925,25.1],[100.075,25.225],[100.025,25.425],[99.875,25.525],[99.875,25.65],[99.775,25.775],[99.6,25.85],[99.525,25.95],[99.6,26.25],[99.475,26.35],[99.45,26.5],[99.3,26.625],[99.125,26.625],[99.25,26.775],[99.275,27.0],[99.4,27.0],[99.4,27.475],[99.225,27.625],[99.175,27.8],[99.4,27.85],[99.5,27.7],[99.575,27.7],[99.725,27.525],[99.825,27.55],[99.8,27.8],[99.9,28.025],[99.9,28.3],[100.0,28.55],[100.05,28.55],[100.2,28.875],[100.425,28.975],[100.4,29.225],[100.5,29.3],[100.625,29.275],[100.7,29.175],[100.875,29.225],[101.0,29.025],[101.15,29.1],[101.25,29.25],[101.35,29.25],[101.475,29.375],[101.575,29.375],[101.6,29.525],[101.775,29.725],[101.75,29.925],[101.75,30.425],[101.85,30.525],[101.9,30.725],[102.075,30.85],[102.25,30.875],[102.3,30.825],[102.35,30.975],[102.425,31.0],[102.475,31.175],[102.6,31.3],[102.675,31.3],[102.65,31.575],[102.875,31.7],[102.875,31.875],[102.825,31.925],[102.8,32.325],[102.95,32.375],[103.125,32.5],[103.325,32.5],[103.475,32.4],[103.575,32.55],[103.725,32.65],[103.75,32.925],[103.625,32.975],[103.525,33.125],[103.525,33.35],[103.575,33.65],[103.475,33.75],[103.325,33.75],[103.225,33.85],[103.375,33.975],[103.4,34.3],[103.225,34.35],[103.025,34.35],[102.95,34.5],[102.8,34.475],[102.75,34.6],[102.675,34.625],[102.575,34.925],[102.275,34.9],[102.2,35.075],[102.125,35.075],[101.975,34.95],[101.9,34.95],[101.775,35.1],[101.6,35.175],[101.525,35.3],[101.525,35.45],[101.375,35.475],[101.25,35.625],[101.125,35.65],[101.05,35.825],[101.05,36.125],[101.125,36.325],[101.0,36.325],[101.0,36.55],[100.925,36.575],[100.8,36.475],[100.6,36.475],[100.35,36.55],[100.35,37.15],[100.425,37.325],[100.425,37.475],[100.325,37.55],[100.3,37.8],[100.1,37.95],[99.7,37.9],[99.55,38.05],[99.5,38.225],[99.275,38.225],[99.1,38.3],[98.9,38.45],[98.625,38.5],[98.55,38.55],[98.225,38.575],[98.125,38.525],[98.05,38.4],[97.95,38.375],[97.75,38.475],[97.7,38.55],[97.525,38.5],[97.35,38.5],[97.325,38.55],[97.175,38.4],[97.0,38.4],[96.725,38.35],[96.55,38.425],[96.3,38.4],[96.25,38.575],[96.15,38.625],[96.225,38.925],[96.325,39.2],[95.975,39.225],[95.925,39.275],[95.75,39.275],[95.65,39.325],[95.675,39.45],[95.55,39.575],[95.2,39.575],[95.1,39.725],[95.1,39.925],[95.025,40.075],[95.025,41.125],[95.275,41.175],[95.425,41.325],[95.65,41.425],[95.725,41.525],[95.85,41.55],[96.05,41.675],[96.075,41.75],[96.3,41.775],[96.6,42.025],[96.675,42.025],[96.975,42.175],[97.175,42.175],[97.25,42.225],[97.275,42.35],[97.375,42.475],[97.575,42.55],[97.7,42.7],[97.925,42.775],[98.075,42.675]],[[110.375,34.775],[110.4,34.775],[110.375,34.8],[110.375,34.775]],[[120.275,33.6],[120.35,33.55],[120.35,33.625],[120.275,33.6]],[[120.254,36.009],[120.15,36.176],[120.117,36.15],[120.094,36.119],[120.181,36.017],[120.254,36.009]],[[120.229,30.25],[120.235,30.252],[120.226,30.25],[120.221,30.248],[120.229,30.25]],[[107.424,21.154],[107.44,21.199],[107.417,21.185],[107.424,21.154]]],[[[114.244,22.234],[114.232,22.211],[114.207,22.195],[114.139,22.268],[114.134,22.292],[114.187,22.297],[114.247,22.264],[114.244,22.234]]],[[[119.832,25.48],[119.821,25.457],[119.747,25.411],[119.7,25.433],[119.699,25.495],[119.723,25.551],[119.696,25.591],[119.723,25.639],[119.778,25.653],[119.797,25.623],[119.829,25.607],[119.838,25.591],[119.839,25.56],[119.809,25.508],[119.832,25.48]]],[[[122.351,29.955],[122.402,29.95],[122.404,29.892],[122.394,29.846],[122.368,29.853],[122.332,29.935],[122.351,29.955]]],[[[122.282,29.944],[122.158,30.001],[122.024,30.013],[121.978,30.064],[121.969,30.143],[122.111,30.14],[122.284,30.068],[122.322,30.031],[122.296,29.963],[122.282,29.944]]]]}}],"snapped":true}