{
 "type": "FeatureCollection",
 "features": [
  {
   "type": "Feature",
   "properties": {
    "color": "#4f7f5a",
    "name": "First expedition: through Qishan to Jieting",
    "name_zh": "第一次北伐：出祁山，失街亭",
    "text": "Three commanderies go over; Ma Su loses Jieting and the army falls back.",
    "text_zh": "三郡叛魏响应，马谡失街亭，全军撤回。",
    "from": 228,
    "to": 264
   },
   "geometry": {
    "type": "LineString",
    "coordinates": [
     [
      107.03,
      33.07
     ],
     [
      106.4,
      33.5
     ],
     [
      105.4,
      34.1
     ],
     [
      105.83,
      34.95
     ]
    ]
   }
  },
  {
   "type": "Feature",
   "properties": {
    "color": "#4f7f5a",
    "name": "First expedition: Zhao Yun's decoy at Ji Valley",
    "name_zh": "第一次北伐：赵云出箕谷为疑兵",
    "text": "The decoy column that drew Cao Zhen's main army.",
    "text_zh": "牵制曹真主力的疑兵。",
    "from": 228,
    "to": 264
   },
   "geometry": {
    "type": "LineString",
    "coordinates": [
     [
      107.03,
      33.07
     ],
     [
      107.05,
      33.6
     ]
    ]
   }
  },
  {
   "type": "Feature",
   "properties": {
    "color": "#4f7f5a",
    "name": "Second expedition: the siege of Chencang",
    "name_zh": "第二次北伐：围陈仓",
    "text": "Hao Zhao holds Chencang for twenty days; Wang Shuang dies in the pursuit. (Winter 228–229.)",
    "text_zh": "郝昭坚守陈仓二十余日，蜀军粮尽而退，斩追将王双。（228年冬至229年初）",
    "from": 228,
    "to": 264
   },
   "geometry": {
    "type": "LineString",
    "coordinates": [
     [
      107.03,
      33.07
     ],
     [
      106.7,
      33.6
     ],
     [
      106.98,
      34.27
     ],
     [
      107.15,
      34.37
     ]
    ]
   }
  },
  {
   "type": "Feature",
   "properties": {
    "color": "#4f7f5a",
    "name": "Third expedition: Wudu and Yinping",
    "name_zh": "第三次北伐：取武都、阴平",
    "text": "The one lasting gain of the northern campaigns.",
    "text_zh": "历次北伐中唯一长期守住的战果。",
    "from": 229,
    "to": 264
   },
   "geometry": {
    "type": "LineString",
    "coordinates": [
     [
      107.03,
      33.07
     ],
     [
      105.7,
      33.75
     ],
     [
      104.68,
      32.95
     ]
    ]
   }
  },
  {
   "type": "Feature",
   "properties": {
    "color": "#4f7f5a",
    "name": "Fourth expedition: Qishan, Shanggui and Mumen",
    "name_zh": "第四次北伐：出祁山，割上邽之麦，木门道射杀张郃",
    "text": "Wooden oxen carry the grain; Zhang He is killed at Mumen in the retreat.",
    "text_zh": "以木牛运粮；退兵时于木门道射杀张郃。",
    "from": 231,
    "to": 264
   },
   "geometry": {
    "type": "LineString",
    "coordinates": [
     [
      107.03,
      33.07
     ],
     [
      106.4,
      33.5
     ],
     [
      105.4,
      34.1
     ],
     [
      105.7,
      34.58
     ],
     [
      105.55,
      34.35
     ]
    ]
   }
  },
  {
   "type": "Feature",
   "properties": {
    "color": "#4f7f5a",
    "name": "Fifth expedition: up the Xie Valley to Wuzhang Plains",
    "name_zh": "第五次北伐：出斜谷，屯五丈原",
    "text": "A hundred days facing Sima Yi across the Wei; Zhuge Liang dies in camp.",
    "text_zh": "与司马懿隔渭水对峙百余日，诸葛亮病逝军中。",
    "from": 234,
    "to": 264
   },
   "geometry": {
    "type": "LineString",
    "coordinates": [
     [
      107.03,
      33.07
     ],
     [
      107.3,
      33.5
     ],
     [
      107.55,
      33.95
     ],
     [
      107.65,
      34.28
     ]
    ]
   }
  }
 ]
}
